{"type":"FeatureCollection","name":"NSHM 2023 Alaska fault sections v2.0 (Bender, Haeussler & Powers; doi:10.5066/P97NRR0F), coords rounded to 1e-5. Display copy built by tools/faults/build_faults.py: pieces with DEPRECATED=true are hidden by the map (coarse duplicates of finer DGGS or 2021 traces).","features":[{"type":"Feature","properties":{"name":"Camden Bay (west)","FaultID":4200,"state":"AK","rate":0.009999999776482582,"rateType":"SLIP_RATE","dip":45,"rake":90,"DEPRECATED":true,"DEPRECATED_WHY":"Coarser duplicate: 9.7 km/vertex where DGGS QFF \"Camden Bay faults\" runs within 2.5 km at finer spacing; hidden on landslidescience.org since 2026-09-20.","DEPRECATED_BY":"DGGS QFF: Camden Bay faults"},"geometry":{"type":"LineString","coordinates":[[-146.71307,70.7517],[-146.5272,70.68836],[-146.35534,70.62935],[-146.1917,70.57276],[-146.06133,70.52738],[-145.93943,70.48472],[-145.72741,70.44324],[-145.47552,70.39347],[-145.24311,70.35473],[-144.95343,70.30587],[-144.73471,70.24566],[-144.52918,70.18858]]}},{"type":"Feature","properties":{"name":"Esker Creek","FaultID":4285,"state":"AK","rate":5,"rateType":"VERTICAL_SLIP_RATE","dip":45,"rake":90},"geometry":{"type":"LineString","coordinates":[[-139.79468,59.93705],[-139.86499,59.93514],[-139.9506,59.93276],[-140.03046,59.95088],[-140.10089,59.97351],[-140.14195,59.98693],[-140.21951,60.01079],[-140.31583,60.03276],[-140.4096,60.05406],[-140.50212,60.07498],[-140.60796,60.08553],[-140.69947,60.08704],[-140.81541,60.08237],[-140.911,60.07347]]}},{"type":"Feature","properties":{"name":"Boundary","FaultID":4286,"state":"AK","rate":3,"rateType":"SLIP_RATE","dip":85,"rake":90,"DEPRECATED":true,"DEPRECATED_WHY":"Coarser duplicate: 3.4 km/vertex where DGGS QFF \"Boundary fault\" runs within 2.5 km at finer spacing; hidden on landslidescience.org since 2026-09-20.","DEPRECATED_BY":"DGGS QFF: Boundary fault"},"geometry":{"type":"LineString","coordinates":[[-138.9275,59.63877],[-138.95336,59.65621],[-138.99695,59.68192],[-139.02492,59.6962],[-139.08235,59.72085],[-139.13106,59.74596],[-139.15541,59.764],[-139.175,59.7814],[-139.19847,59.80221],[-139.22358,59.82445],[-139.25298,59.85045],[-139.26419,59.85968]]}},{"type":"Feature","properties":{"name":"Boundary","FaultID":4286,"state":"AK","rate":3,"rateType":"SLIP_RATE","dip":85,"rake":90},"geometry":{"type":"LineString","coordinates":[[-139.26643,59.86153],[-139.27764,59.87077],[-139.30417,59.89261],[-139.33281,59.91615],[-139.35967,59.94129],[-139.38182,59.962],[-139.42849,59.99354],[-139.47067,60.02198],[-139.50976,60.05175]]}},{"type":"Feature","properties":{"name":"Rude River","FaultID":4287,"state":"AK","rate":0.20000000298023224,"rateType":"NOMINAL","dip":45,"rake":90,"DEPRECATED":true,"DEPRECATED_WHY":"Coarser duplicate: 4.6 km/vertex where DGGS QFF \"Rude River/Bagley fault\" runs within 2.5 km at finer spacing; hidden on landslidescience.org since 2026-09-20.","DEPRECATED_BY":"DGGS QFF: Rude River/Bagley fault"},"geometry":{"type":"LineString","coordinates":[[-144.92272,60.69469],[-145.05184,60.72222],[-145.19267,60.74335],[-145.24972,60.74746],[-145.31665,60.74872],[-145.35948,60.7458],[-145.43355,60.73512],[-145.50373,60.71902],[-145.5702,60.69338],[-145.65689,60.65295],[-145.73285,60.62896],[-145.80492,60.61091],[-145.88137,60.59854],[-145.96019,60.58573],[-146.03563,60.56523],[-146.11392,60.5465],[-146.18183,60.5192],[-146.27798,60.4839],[-146.32779,60.46169],[-146.39855,60.4433],[-146.45703,60.42446],[-146.5194,60.40606],[-146.58741,60.3786],[-146.6102,60.36398],[-146.6797,60.33148]]}},{"type":"Feature","properties":{"name":"Kigluaik","FaultID":4210,"state":"AK","rate":0.20000000298023224,"rateType":"NOMINAL","dip":60,"rake":-90,"DEPRECATED":true,"DEPRECATED_WHY":"Coarser duplicate: 6.6 km/vertex where USGS 2021 ArcticDEM traces \"Kigluaik\" runs within 2.5 km at finer spacing; hidden on landslidescience.org since 2026-09-20.","DEPRECATED_BY":"USGS 2021 ArcticDEM traces: Kigluaik"},"geometry":{"type":"LineString","coordinates":[[-164.76152,65.03717],[-164.88085,65.04489],[-165.03443,65.04532],[-165.16863,65.02596],[-165.29029,65.04585],[-165.41633,65.05812],[-165.55567,65.03705],[-165.69752,65.02205],[-165.78102,64.99993],[-165.9205,64.97485],[-166.0592,64.95409]]}},{"type":"Feature","properties":{"name":"Bancas Point","FaultID":4263,"state":"AK","rate":3,"rateType":"VERTICAL_SLIP_RATE","dip":45,"rake":90},"geometry":{"type":"LineString","coordinates":[[-139.5359,60.06404],[-139.56876,60.04047],[-139.61214,60.00687],[-139.61214,59.96966],[-139.62116,59.94556],[-139.79468,59.93705]]}},{"type":"Feature","properties":{"name":"Gulf of Alaska","FaultID":4264,"state":"AK","rate":0.20000000298023224,"rateType":"NOMINAL","dip":90,"rake":180},"geometry":{"type":"LineString","coordinates":[[-142.37804,59.02808],[-142.43297,58.93793],[-142.48394,58.85383],[-142.53424,58.7704],[-142.58579,58.68446],[-142.64041,58.59288],[-142.65899,58.49325],[-142.67617,58.40056],[-142.69398,58.30397],[-142.71264,58.20214],[-142.73091,58.1019],[-142.74907,58.00165],[-142.76681,57.90314],[-142.78782,57.7858],[-142.80665,57.67987],[-142.82571,57.57205],[-142.8443,57.46623],[-142.86116,57.36968],[-142.87693,57.2789],[-142.89296,57.18609],[-142.9086,57.09515],[-142.92543,56.99667],[-142.93896,56.91715],[-142.95375,56.8298],[-142.96968,56.73522],[-142.98816,56.62487]]}},{"type":"Feature","properties":{"name":"Northern Foothills","FaultID":4230,"state":"AK","rate":3,"rateType":"SLIP_RATE","dip":45,"rake":90},"geometry":{"type":"LineString","coordinates":[[-149.83067,64.14802],[-149.72019,64.18481],[-149.60141,64.20314],[-149.52215,64.21201],[-149.45709,64.19616],[-149.39797,64.17694],[-149.36293,64.18598],[-149.31374,64.1956]]}},{"type":"Feature","properties":{"name":"Northern Foothills","FaultID":4230,"state":"AK","rate":3,"rateType":"SLIP_RATE","dip":45,"rake":90,"DEPRECATED":true,"DEPRECATED_WHY":"Coarser duplicate: 2.4 km/vertex where DGGS QFF \"Northern Foothills thrust fault (Northern Foothills fold and thrust belt)\" runs within 2.5 km at finer spacing; hidden on landslidescience.org since 2026-09-20.","DEPRECATED_BY":"DGGS QFF: Northern Foothills thrust fault (Northern Foothills fold and thrust belt)"},"geometry":{"type":"LineString","coordinates":[[-149.30882,64.19656],[-149.26456,64.20523],[-149.2389,64.20519],[-149.18999,64.21188],[-149.16166,64.21335],[-149.13952,64.2159],[-149.11831,64.21654],[-149.09401,64.21423],[-149.06718,64.21377],[-149.04936,64.21858],[-149.03124,64.22231],[-149.01402,64.22075],[-148.99072,64.22044],[-148.97747,64.21709],[-148.9621,64.21533],[-148.94173,64.21077],[-148.90668,64.21265],[-148.87826,64.20819],[-148.86035,64.20552],[-148.81332,64.20831],[-148.80294,64.21093]]}},{"type":"Feature","properties":{"name":"Northern Foothills","FaultID":4230,"state":"AK","rate":3,"rateType":"SLIP_RATE","dip":45,"rake":90},"geometry":{"type":"LineString","coordinates":[[-148.79775,64.21224],[-148.79775,64.21224],[-148.78735,64.21256],[-148.75961,64.21614],[-148.73831,64.22443],[-148.65046,64.23315],[-148.62179,64.23311],[-148.57328,64.23242],[-148.54596,64.23352],[-148.53195,64.23202],[-148.52016,64.22917],[-148.48729,64.22235],[-148.47655,64.2201],[-148.46402,64.22036],[-148.4553,64.21961],[-148.43974,64.21677],[-148.42647,64.21236],[-148.4141,64.21176],[-148.37685,64.21075],[-148.36141,64.20825],[-148.34059,64.2072],[-148.32328,64.19421],[-148.30632,64.18701],[-148.24368,64.18508],[-148.2214,64.18402],[-148.20725,64.18177],[-148.18205,64.17732],[-148.15329,64.16943],[-148.12872,64.16442],[-148.11057,64.16513]]}},{"type":"Feature","properties":{"name":"Northern Foothills","FaultID":4230,"state":"AK","rate":3,"rateType":"SLIP_RATE","dip":45,"rake":90,"DEPRECATED":true,"DEPRECATED_WHY":"Coarser duplicate: 2.4 km/vertex where DGGS QFF \"Northern Foothills thrust fault (Northern Foothills fold and thrust belt)\" runs within 2.5 km at finer spacing; hidden on landslidescience.org since 2026-09-20.","DEPRECATED_BY":"DGGS QFF: Northern Foothills thrust fault (Northern Foothills fold and thrust belt)"},"geometry":{"type":"LineString","coordinates":[[-148.10451,64.16537],[-148.09846,64.1656],[-148.07629,64.16331],[-148.06363,64.16268],[-148.04387,64.16226],[-148.01686,64.15969],[-148.00702,64.1583],[-148.00163,64.15603],[-147.98593,64.1445],[-147.97188,64.14171],[-147.96869,64.13902],[-147.96326,64.13581],[-147.95496,64.13359],[-147.94643,64.12995],[-147.92762,64.12581],[-147.9208,64.12629],[-147.89392,64.11835],[-147.87663,64.11618],[-147.85432,64.11528],[-147.81935,64.12084],[-147.78609,64.11481],[-147.76114,64.11442],[-147.7421,64.10973],[-147.73018,64.1032],[-147.7163,64.09617],[-147.63602,64.07498],[-147.57199,64.07716],[-147.53608,64.10173],[-147.48329,64.10214],[-147.44737,64.09264]]}},{"type":"Feature","properties":{"name":"Northern Foothills","FaultID":4230,"state":"AK","rate":3,"rateType":"SLIP_RATE","dip":45,"rake":90},"geometry":{"type":"LineString","coordinates":[[-147.44288,64.09145],[-147.37554,64.07365],[-147.24192,64.05757],[-147.18509,64.0742],[-147.10936,64.07358],[-147.07813,64.08328],[-146.97118,64.08589],[-146.67328,64.04651],[-146.51149,63.9791],[-146.28229,63.89179],[-146.13312,63.88067],[-145.79477,63.79371]]}},{"type":"Feature","properties":{"name":"Billy Creek","FaultID":4231,"state":"AK","rate":0.009999999776482582,"rateType":"SLIP_RATE","dip":60,"rake":45},"geometry":{"type":"LineString","coordinates":[[-143.67832,63.87218],[-143.75459,63.84714],[-143.86963,63.81286],[-143.97768,63.77835]]}},{"type":"Feature","properties":{"name":"Cordova","FaultID":4265,"state":"AK","rate":0.009999999776482582,"rateType":"NOMINAL","dip":45,"rake":90,"DEPRECATED":true,"DEPRECATED_WHY":"Coarser duplicate: 1.8 km/vertex where DGGS QFF \"Cordova fault\" runs within 2.5 km at finer spacing; hidden on landslidescience.org since 2026-09-20.","DEPRECATED_BY":"DGGS QFF: Cordova fault"},"geometry":{"type":"LineString","coordinates":[[-145.19791,60.74131],[-145.21548,60.73372],[-145.22041,60.73113],[-145.23554,60.72339],[-145.24037,60.72114],[-145.26021,60.71028],[-145.2822,60.69921],[-145.33752,60.6713],[-145.37946,60.65107],[-145.4217,60.63497],[-145.4448,60.62721],[-145.48096,60.61906],[-145.51768,60.61265],[-145.54224,60.60718],[-145.55989,60.60264],[-145.60961,60.59326],[-145.66778,60.58079],[-145.74055,60.56442],[-145.7996,60.55225],[-145.8341,60.54704],[-145.84072,60.54573],[-145.86329,60.54214],[-145.88877,60.5394],[-145.92495,60.5344],[-145.94643,60.5309],[-145.99944,60.52551],[-146.01791,60.52421],[-146.0317,60.52349],[-146.0552,60.523],[-146.0632,60.52312],[-146.08528,60.52561],[-146.11773,60.5328],[-146.13375,60.53578]]}},{"type":"Feature","properties":{"name":"Denali (Boss Creek)","FaultID":4001,"state":"AK","rate":0.20000000298023224,"rateType":"NOMINAL","dip":90,"rake":180,"DEPRECATED":true,"DEPRECATED_WHY":"Coarser duplicate: 9.9 km/vertex where USGS 2021 ArcticDEM traces \"Denali (Boss Creek)\" runs within 2.5 km at finer spacing; hidden on landslidescience.org since 2026-09-20.","DEPRECATED_BY":"USGS 2021 ArcticDEM traces: Denali (Boss Creek)"},"geometry":{"type":"LineString","coordinates":[[-158.44273,61.05184],[-158.44208,61.05205],[-158.25003,61.12171],[-158.05638,61.18573],[-157.80581,61.2678],[-157.80578,61.26781],[-157.56189,61.33068],[-157.3906,61.39481],[-157.23945,61.45102],[-157.04675,61.52215],[-156.84523,61.57556],[-156.64849,61.62724],[-156.47808,61.67165],[-156.27898,61.72312],[-156.20471,61.75115],[-156.03277,61.79688],[-155.94207,61.82087],[-155.87405,61.83789],[-155.65675,61.89337],[-155.47049,61.94051],[-155.25647,61.9942],[-155.24618,61.99752]]}},{"type":"Feature","properties":{"name":"Denali (west)","FaultID":4002,"state":"AK","rate":5.300000190734863,"rateType":"SLIP_RATE","dip":90,"rake":180,"DEPRECATED":true,"DEPRECATED_WHY":"Coarser duplicate: 8.2 km/vertex where USGS 2021 ArcticDEM traces \"Denali (Farewell)\" runs within 2.5 km at finer spacing; hidden on landslidescience.org since 2026-09-20.","DEPRECATED_BY":"USGS 2021 ArcticDEM traces: Denali (Farewell)"},"geometry":{"type":"LineString","coordinates":[[-155.24618,61.99752],[-155.08395,62.04975],[-154.91073,62.11396],[-154.83702,62.14305],[-154.76595,62.17172],[-154.62947,62.2404],[-154.44252,62.31897],[-154.37603,62.34553],[-154.27466,62.37059],[-154.20809,62.38904],[-154.16274,62.39915],[-154.12053,62.4079],[-154.02276,62.42782],[-153.87096,62.45563],[-153.80353,62.46638],[-153.74288,62.47617],[-153.68529,62.48492],[-153.63745,62.49147],[-153.59804,62.49897],[-153.38353,62.53584],[-153.31076,62.55054],[-153.25078,62.56137],[-153.18238,62.57716],[-153.0005,62.61088],[-152.42395,62.73405],[-152.27045,62.77545],[-152.19305,62.78815],[-152.12623,62.80514],[-151.51072,63.00804],[-151.3495,63.05892],[-151.2514,63.09686],[-151.07598,63.16217],[-151.00396,63.17654]]}},{"type":"Feature","properties":{"name":"Kantishna Hills (north)","FaultID":4232,"state":"AK","rate":1,"rateType":"NOMINAL","dip":5,"rake":90},"geometry":{"type":"LineString","coordinates":[[-150.89663,63.54647],[-150.83086,63.58666],[-150.74996,63.6359],[-150.67485,63.68143],[-150.61781,63.719],[-150.56754,63.75202],[-150.49324,63.80159],[-150.41309,63.85482],[-150.32382,63.91275],[-150.22664,63.97549]]}},{"type":"Feature","properties":{"name":"Granite Point","FaultID":4250,"state":"AK","rate":2.5,"rateType":"SLIP_RATE","dip":45,"rake":90},"geometry":{"type":"LineString","coordinates":[[-151.37374,60.92257],[-151.36192,60.93588],[-151.34909,60.9503],[-151.33944,60.9618],[-151.32976,60.97334],[-151.32113,60.98487],[-151.31294,60.99582],[-151.30456,61.00547],[-151.295,61.01647],[-151.28526,61.0255],[-151.2747,61.03528],[-151.26009,61.04579]]}},{"type":"Feature","properties":{"name":"Lewis River","FaultID":4251,"state":"AK","rate":0.009999999776482582,"rateType":"NOMINAL","dip":45,"rake":90},"geometry":{"type":"LineString","coordinates":[[-150.84053,61.35263],[-150.85105,61.33546],[-150.85751,61.32119],[-150.867,61.30159],[-150.87589,61.28799],[-150.88716,61.27563],[-150.89693,61.26564],[-150.90877,61.24729],[-150.9118,61.24196]]}},{"type":"Feature","properties":{"name":"North Cook Inlet - SRS","FaultID":4252,"state":"AK","rate":0.30000001192092896,"rateType":"SLIP_RATE","dip":45,"rake":90},"geometry":{"type":"LineString","coordinates":[[-150.89198,61.14966],[-150.90616,61.13256],[-150.9202,61.11667],[-150.9364,61.09121],[-150.95189,61.07294],[-150.96884,61.0523],[-150.98706,61.03109],[-151.00487,61.01407],[-151.02486,61.0001],[-151.05975,60.98644],[-151.08953,60.97386],[-151.11843,60.95706],[-151.13575,60.94422],[-151.16082,60.92793],[-151.17185,60.91556],[-151.18496,60.89362],[-151.19459,60.8686],[-151.2137,60.83418]]}},{"type":"Feature","properties":{"name":"Kayak","FaultID":4266,"state":"AK","rate":3.5,"rateType":"SLIP_RATE","dip":60,"rake":90},"geometry":{"type":"LineString","coordinates":[[-144.63474,59.78816],[-144.66326,59.733],[-144.73056,59.69662],[-144.79636,59.66092],[-144.84431,59.6131],[-144.88993,59.56746],[-144.93859,59.51862],[-144.98651,59.47037],[-145.04505,59.42227],[-145.1101,59.36862],[-145.19808,59.3143],[-145.28716,59.25907],[-145.35729,59.21542],[-145.4351,59.17928],[-145.5094,59.14466]]}},{"type":"Feature","properties":{"name":"Icy Point","FaultID":4267,"state":"AK","rate":5,"rateType":"VERTICAL_SLIP_RATE","dip":50,"rake":90},"geometry":{"type":"LineString","coordinates":[[-137.05101,58.36015],[-137.27704,58.45659],[-137.31325,58.4705],[-137.34864,58.4842],[-137.41062,58.50793],[-137.4413,58.52041],[-137.47056,58.5335],[-137.50042,58.5468],[-137.53479,58.56173],[-137.56036,58.57626],[-137.58961,58.59344],[-137.60638,58.60387]]}},{"type":"Feature","properties":{"name":"Cape Cleare","FaultID":4268,"state":"AK","rate":2,"rateType":"SLIP_RATE","dip":45,"rake":90},"geometry":{"type":"LineString","coordinates":[[-147.68161,59.8484],[-147.71382,59.82024],[-147.7189,59.80437],[-147.71362,59.78526],[-147.71081,59.75742],[-147.73757,59.73664],[-147.75744,59.71274],[-147.7907,59.68351],[-147.84187,59.65351],[-147.87655,59.63948],[-147.94501,59.62052],[-148.00385,59.61168],[-148.05645,59.60454],[-148.13776,59.57775],[-148.18599,59.56734],[-148.32049,59.52934],[-148.39659,59.50708],[-148.56611,59.43143],[-148.72474,59.36319],[-148.80396,59.32838],[-148.88288,59.28703],[-148.95168,59.25126],[-149.03491,59.19769],[-149.08644,59.16895],[-149.17905,59.08879],[-149.2733,59.05247],[-149.3621,59.02034],[-149.39675,59.0115],[-149.68243,58.88354],[-149.72563,58.87161],[-149.83746,58.83648],[-149.92648,58.79359]]}},{"type":"Feature","properties":{"name":"Bagley (west)","FaultID":4269,"state":"AK","rate":0.20000000298023224,"rateType":"NOMINAL","dip":45,"rake":90,"DEPRECATED":true,"DEPRECATED_WHY":"Coarser duplicate: 8.6 km/vertex where DGGS QFF \"Bagley fault (Chugach-St. Elias fold and thrust belt))\" runs within 2.5 km at finer spacing; hidden on landslidescience.org since 2026-09-20.","DEPRECATED_BY":"DGGS QFF: Bagley fault (Chugach-St. Elias fold and thrust belt))"},"geometry":{"type":"LineString","coordinates":[[-143.99866,60.62786],[-144.12641,60.63774],[-144.21783,60.6402],[-144.37454,60.65841],[-144.54397,60.67132],[-144.79508,60.67401],[-144.92272,60.69469]]}},{"type":"Feature","properties":{"name":"Narrow Cape","FaultID":4270,"state":"AK","rate":3.299999952316284,"rateType":"SLIP_RATE","dip":60,"rake":45},"geometry":{"type":"LineString","coordinates":[[-152.06502,57.62751],[-152.09643,57.60823],[-152.1452,57.5792],[-152.19946,57.54446],[-152.23967,57.51829],[-152.30159,57.48827]]}},{"type":"Feature","properties":{"name":"Narrow Cape","FaultID":4270,"state":"AK","rate":3.299999952316284,"rateType":"SLIP_RATE","dip":60,"rake":45,"DEPRECATED":true,"DEPRECATED_WHY":"Coarser duplicate: 4.3 km/vertex where DGGS QFF \"Narrow Cape fault zone (unnamed strand)\" runs within 2.5 km at finer spacing; hidden on landslidescience.org since 2026-09-20.","DEPRECATED_BY":"DGGS QFF: Narrow Cape fault zone (unnamed strand)"},"geometry":{"type":"LineString","coordinates":[[-152.30468,57.48676],[-152.33255,57.47325],[-152.37309,57.45807],[-152.40585,57.43769]]}},{"type":"Feature","properties":{"name":"Minto Flats (north)","FaultID":4233,"state":"AK","rate":2,"rateType":"SLIP_RATE","dip":80,"rake":180},"geometry":{"type":"LineString","coordinates":[[-148.4075,65.2186],[-148.5275,65.1598],[-148.6475,65.0794],[-148.7725,65.0206],[-148.9225,64.9432],[-148.9975,64.8721],[-149.1025,64.8071],[-149.2275,64.7483],[-149.3425,64.6834],[-149.4575,64.6122],[-149.5725,64.5534]]}},{"type":"Feature","properties":{"name":"Minto Flats (south)","FaultID":4234,"state":"AK","rate":2,"rateType":"SLIP_RATE","dip":80,"rake":180},"geometry":{"type":"LineString","coordinates":[[-148.4775,64.9587],[-148.5825,64.8999],[-148.7025,64.8473],[-148.8175,64.7885],[-148.9575,64.739],[-149.0825,64.6741],[-149.2175,64.606],[-149.3175,64.538],[-149.4375,64.4761],[-149.6425,64.4142],[-149.7525,64.3647],[-149.8425,64.309],[-149.9625,64.2286],[-150.0775,64.1265],[-150.1625,64.0368],[-150.2375,63.9594],[-150.3175,63.8883],[-150.3675,63.8202]]}},{"type":"Feature","properties":{"name":"Denali (center, middle)","FaultID":4004,"state":"AK","rate":7.400000095367432,"rateType":"SLIP_RATE","dip":90,"rake":180,"DEPRECATED":true,"DEPRECATED_WHY":"Coarser duplicate: 10.0 km/vertex where DGGS QFF \"Denali fault (West Muldrow-Alsek section)\" runs within 2.5 km at finer spacing; hidden on landslidescience.org since 2026-09-20.","DEPRECATED_BY":"DGGS QFF: Denali fault (West Muldrow-Alsek section)"},"geometry":{"type":"LineString","coordinates":[[-148.83762,63.45403],[-148.72167,63.45734],[-148.61524,63.46367],[-148.4796,63.46545],[-148.39249,63.47341],[-148.06671,63.48969],[-147.92072,63.49125],[-147.7674,63.50375],[-147.52442,63.50917],[-147.16185,63.53223],[-146.76062,63.51369],[-146.57763,63.49445],[-146.4248,63.48382],[-146.36512,63.48334],[-145.98188,63.43837],[-145.86889,63.41824]]}},{"type":"Feature","properties":{"name":"Fairweather (south)","FaultID":4040,"state":"AK","rate":49,"rateType":"SLIP_RATE","dip":88,"rake":172,"DEPRECATED":true,"DEPRECATED_WHY":"Coarser duplicate: 7.6 km/vertex where DGGS QFF \"Fairweather fault\" runs within 2.5 km at finer spacing; hidden on landslidescience.org since 2026-09-20.","DEPRECATED_BY":"DGGS QFF: Fairweather fault"},"geometry":{"type":"LineString","coordinates":[[-138.54088,59.52812],[-138.49115,59.49669],[-138.41781,59.44689],[-138.24664,59.3143],[-138.12555,59.2188],[-138.03046,59.12726],[-137.97519,59.06642],[-137.92989,59.01945],[-137.88105,58.96814],[-137.80984,58.91361],[-137.71946,58.83788],[-137.6427,58.77877],[-137.6074,58.75729],[-137.49301,58.67082],[-137.45303,58.64732],[-137.37993,58.59307],[-137.34092,58.5696],[-137.31223,58.55361],[-137.18408,58.48789],[-137.11509,58.43822],[-137.10158,58.42802],[-137.09979,58.41581],[-137.07799,58.39913],[-136.99201,58.34273]]}},{"type":"Feature","properties":{"name":"Granite Mountain (west)","FaultID":4235,"state":"AK","rate":0.20000000298023224,"rateType":"NOMINAL","dip":60,"rake":45,"DEPRECATED":true,"DEPRECATED_WHY":"Coarser duplicate: 2.0 km/vertex where DGGS QFF \"Granite Mountain fault (Northern Foothills fold and thrust belt)\" runs within 2.5 km at finer spacing; hidden on landslidescience.org since 2026-09-20.","DEPRECATED_BY":"DGGS QFF: Granite Mountain fault (Northern Foothills fold and thrust belt)"},"geometry":{"type":"LineString","coordinates":[[-145.53459,63.79344],[-145.49836,63.80221],[-145.47003,63.81698],[-145.44744,63.82708],[-145.4243,63.83509],[-145.37401,63.85494]]}},{"type":"Feature","properties":{"name":"McLeod Creek","FaultID":4236,"state":"AK","rate":1.7000000476837158,"rateType":"SLIP_RATE","dip":45,"rake":90},"geometry":{"type":"LineString","coordinates":[[-151.33118,63.1207],[-151.27592,63.15334],[-151.24695,63.15911],[-151.22104,63.17268],[-151.18833,63.19307],[-151.15589,63.20164],[-151.12519,63.21467],[-151.08909,63.23231],[-151.02922,63.2608],[-150.97135,63.26922],[-150.91992,63.28227],[-150.90808,63.293],[-150.86525,63.30833],[-150.86393,63.31468],[-150.81222,63.3348],[-150.69792,63.35496],[-150.67412,63.3598],[-150.60415,63.37352],[-150.53232,63.38341]]}},{"type":"Feature","properties":{"name":"Broad Pass Thrust","FaultID":4253,"state":"AK","rate":3,"rateType":"SLIP_RATE","dip":60,"rake":90},"geometry":{"type":"LineString","coordinates":[[-148.83762,63.45403],[-148.99581,63.39505],[-149.12886,63.34512],[-149.27246,63.29093],[-149.41655,63.23621],[-149.52255,63.17061],[-149.63153,63.10279],[-149.72078,63.04696],[-149.8236,62.99037],[-149.93517,62.92865],[-150.0423,62.86906],[-150.15811,62.8043],[-150.26483,62.75017],[-150.38031,62.69129],[-150.50037,62.62973],[-150.60332,62.57064],[-150.72486,62.50049],[-150.84263,62.43211],[-150.83358,62.3755],[-150.82362,62.3129],[-150.86126,62.25648],[-150.90918,62.18434],[-150.99196,62.12444],[-151.08823,62.05442],[-151.18489,61.98374]]}},{"type":"Feature","properties":{"name":"Kaktovik (west)","FaultID":4201,"state":"AK","rate":0.10000000149011612,"rateType":"SLIP_RATE","dip":69,"rake":180},"geometry":{"type":"LineString","coordinates":[[-145.21641,69.62463],[-144.90022,69.60533],[-144.57642,69.58497]]}},{"type":"Feature","properties":{"name":"Queen Charlotte (outboard, center)","FaultID":4300,"state":"AK","rate":0.009999999776482582,"rateType":"NOMINAL","dip":45,"rake":90},"geometry":{"type":"LineString","coordinates":[[-134.61042,54.59314],[-134.53081,54.57217],[-134.49293,54.55704],[-134.40517,54.51527],[-134.3386,54.46142],[-134.30019,54.41626],[-134.29201,54.39409],[-134.27768,54.37475]]}},{"type":"Feature","properties":{"name":"Queen Charlotte (outboard, north)","FaultID":4301,"state":"AK","rate":0.009999999776482582,"rateType":"NOMINAL","dip":45,"rake":90},"geometry":{"type":"LineString","coordinates":[[-134.59777,54.75503],[-134.63187,54.80222],[-134.66989,54.83371],[-134.70675,54.86306],[-134.74865,54.8874],[-134.78939,54.90381],[-134.82643,54.9282]]}},{"type":"Feature","properties":{"name":"Queen Charlotte (outboard, south)","FaultID":4302,"state":"AK","rate":0.009999999776482582,"rateType":"NOMINAL","dip":45,"rake":90},"geometry":{"type":"LineString","coordinates":[[-134.51518,54.23326],[-134.54415,54.2562],[-134.58149,54.29914],[-134.59955,54.32345],[-134.63591,54.35139],[-134.68093,54.37363],[-134.69523,54.42147],[-134.69013,54.44999],[-134.69844,54.48425]]}},{"type":"Feature","properties":{"name":"Iditarod - Nixon Fork (center)","FaultID":4221,"state":"AK","rate":0.009999999776482582,"rateType":"NOMINAL","dip":90,"rake":180,"DEPRECATED":true,"DEPRECATED_WHY":"Coarser duplicate: 6.4 km/vertex where DGGS QFF \"Iditarod-Nixon Fork fault (Fourth of July Creek section)\" runs within 2.5 km at finer spacing; hidden on landslidescience.org since 2026-09-20.","DEPRECATED_BY":"DGGS QFF: Iditarod-Nixon Fork fault (Fourth of July Creek section)"},"geometry":{"type":"LineString","coordinates":[[-157.82361,62.2506],[-157.74844,62.30929],[-157.68343,62.34911],[-157.63188,62.3806],[-157.56283,62.43026],[-157.49646,62.47781],[-157.37052,62.53077],[-157.27513,62.57069],[-157.18407,62.60864],[-157.06904,62.65636],[-156.95832,62.68736],[-156.84977,62.71761],[-156.76591,62.74224],[-156.66558,62.77594],[-156.58704,62.80221],[-156.43691,62.85219],[-156.32474,62.88621],[-156.2189,62.91817],[-156.1055,62.96142],[-156.00502,62.99956],[-155.95923,63.00332]]}},{"type":"Feature","properties":{"name":"Iditarod - Nixon Fork (center)","FaultID":4221,"state":"AK","rate":0.009999999776482582,"rateType":"NOMINAL","dip":90,"rake":180},"geometry":{"type":"LineString","coordinates":[[-155.95414,63.00373],[-155.92361,63.00624],[-155.82871,63.03244],[-155.75768,63.05198],[-155.65933,63.07893],[-155.58702,63.09868],[-155.50412,63.12124],[-155.42425,63.1429],[-155.33689,63.16651],[-155.25668,63.18811],[-155.14885,63.21141],[-155.02004,63.2391],[-154.89674,63.26545]]}},{"type":"Feature","properties":{"name":"Iditarod - Nixon Fork (center)","FaultID":4221,"state":"AK","rate":0.009999999776482582,"rateType":"NOMINAL","dip":90,"rake":180,"DEPRECATED":true,"DEPRECATED_WHY":"Coarser duplicate: 6.4 km/vertex where DGGS QFF \"Iditarod-Nixon Fork fault (Fourth of July Creek section)\" runs within 2.5 km at finer spacing; hidden on landslidescience.org since 2026-09-20.","DEPRECATED_BY":"DGGS QFF: Iditarod-Nixon Fork fault (Fourth of July Creek section)"},"geometry":{"type":"LineString","coordinates":[[-154.89233,63.26639],[-154.88793,63.26733],[-154.75507,63.29554]]}},{"type":"Feature","properties":{"name":"Iditarod - Nixon Fork (west)","FaultID":4222,"state":"AK","rate":0.009999999776482582,"rateType":"NOMINAL","dip":90,"rake":180,"DEPRECATED":true,"DEPRECATED_WHY":"Coarser duplicate: 6.1 km/vertex where DGGS QFF \"Iditarod-Nixon Fork fault\" runs within 2.5 km at finer spacing; hidden on landslidescience.org since 2026-09-20.","DEPRECATED_BY":"DGGS QFF: Iditarod-Nixon Fork fault"},"geometry":{"type":"LineString","coordinates":[[-159.3627,61.57424],[-159.36054,61.64266],[-159.338,61.70127],[-159.29134,61.75793],[-159.24052,61.78722],[-159.13878,61.82584],[-159.10036,61.84584],[-159.04841,61.86603],[-159.01116,61.88877],[-158.97627,61.92218],[-158.90221,61.96243],[-158.83432,61.99921],[-158.75057,62.03567],[-158.66392,62.06929],[-158.54574,62.11494],[-158.44585,62.15335],[-158.31237,62.20275],[-158.17745,62.2493],[-158.05898,62.28623],[-157.978,62.31357],[-157.8961,62.34112],[-157.80687,62.36929],[-157.73558,62.39509],[-157.66455,62.42072],[-157.58598,62.44746],[-157.49646,62.47781]]}},{"type":"Feature","properties":{"name":"Queen Charlotte (south)","FaultID":4043,"state":"AK","rate":54.400001525878906,"rateType":"SLIP_RATE","dip":90,"rake":180},"geometry":{"type":"LineString","coordinates":[[-131.69013,52.25462],[-131.71686,52.26024],[-131.73149,52.26836],[-131.7563,52.27311],[-131.80881,52.29811],[-131.82565,52.31278],[-131.85148,52.3411],[-131.91809,52.40379],[-131.93569,52.41814],[-132.00898,52.47773],[-132.08388,52.5384],[-132.15481,52.60095],[-132.23523,52.67157],[-132.28818,52.71507],[-132.33675,52.75486],[-132.39097,52.79915],[-132.47144,52.87593],[-132.53362,52.92716],[-132.59154,52.97472],[-132.64307,53.01799],[-132.70365,53.06869],[-132.73915,53.09678],[-132.79649,53.14685],[-132.8499,53.19334],[-132.89033,53.23175],[-132.93291,53.27209],[-132.97386,53.31187],[-133.03449,53.3706],[-133.08386,53.41842],[-133.13944,53.47207],[-133.19323,53.53831],[-133.26797,53.6176],[-133.34943,53.68911],[-133.40081,53.73965],[-133.45991,53.79757],[-133.50035,53.83996],[-133.54486,53.88649],[-133.61071,53.95019],[-133.68061,54.01755],[-133.74712,54.08282],[-133.82104,54.15506],[-133.90487,54.23547],[-133.99853,54.32378]]}},{"type":"Feature","properties":{"name":"Camden Bay (east)","FaultID":4202,"state":"AK","rate":0.009999999776482582,"rateType":"NOMINAL","dip":45,"rake":90,"DEPRECATED":true,"DEPRECATED_WHY":"Coarser duplicate: 8.9 km/vertex where DGGS QFF \"Camden anticline (Camden Bay faults)\" runs within 2.5 km at finer spacing; hidden on landslidescience.org since 2026-09-20.","DEPRECATED_BY":"DGGS QFF: Camden anticline (Camden Bay faults)"},"geometry":{"type":"LineString","coordinates":[[-144.6292,70.33872],[-144.42581,70.35747],[-144.21007,70.37709],[-143.97915,70.39779],[-143.7471,70.42457],[-143.50125,70.45258],[-143.21151,70.48509],[-142.95469,70.51347],[-142.71625,70.53946],[-142.48247,70.56459],[-142.3012,70.50278],[-142.12552,70.4424],[-141.96333,70.38626],[-141.79575,70.32784],[-141.61085,70.29328],[-141.45573,70.26407],[-141.26564,70.25989],[-141.05699,70.25509]]}},{"type":"Feature","properties":{"name":"Kantishna Hills (south)","FaultID":4237,"state":"AK","rate":1.2000000476837158,"rateType":"SLIP_RATE","dip":5,"rake":90},"geometry":{"type":"LineString","coordinates":[[-151.60583,63.42405],[-151.5023,63.43277],[-151.33455,63.46381],[-151.23845,63.47027],[-151.1599,63.48132],[-151.04465,63.50137],[-150.89663,63.54647]]}},{"type":"Feature","properties":{"name":"Queen Charlotte (north)","FaultID":4041,"state":"AK","rate":53.5,"rateType":"SLIP_RATE","dip":90,"rake":180},"geometry":{"type":"LineString","coordinates":[[-135.64565,56.36022],[-135.69806,56.43114],[-135.75269,56.50477],[-135.80259,56.57173],[-135.85246,56.63775],[-135.89875,56.69881],[-135.9433,56.75735],[-136.00335,56.84206],[-136.06334,56.91348],[-136.12614,56.98792],[-136.16715,57.04863],[-136.20476,57.10411],[-136.24001,57.15595],[-136.27693,57.21267],[-136.3168,57.27369],[-136.35712,57.34069],[-136.39149,57.39759],[-136.44508,57.48087],[-136.50163,57.56828],[-136.54981,57.6387],[-136.60205,57.71471],[-136.65057,57.785],[-136.70164,57.85504],[-136.76505,57.94159],[-136.82797,58.02664],[-136.89237,58.11323],[-136.94596,58.18492],[-137.00076,58.25195],[-137.06042,58.32462],[-137.09605,58.37698]]}},{"type":"Feature","properties":{"name":"Queen Charlotte (center)","FaultID":4042,"state":"AK","rate":54.20000076293945,"rateType":"SLIP_RATE","dip":90,"rake":180},"geometry":{"type":"LineString","coordinates":[[-133.99853,54.32378],[-134.05583,54.38137],[-134.11008,54.43571],[-134.14779,54.48112],[-134.193,54.53539],[-134.24354,54.59586],[-134.29865,54.67125],[-134.35054,54.74193],[-134.40875,54.8148],[-134.46374,54.88336],[-134.52231,54.9601],[-134.58073,55.03629],[-134.62856,55.09274],[-134.67762,55.15042],[-134.73935,55.22208],[-134.80877,55.30228],[-134.87033,55.36786],[-134.93548,55.43697],[-134.98274,55.4851],[-135.03724,55.54043],[-135.12076,55.63074],[-135.18744,55.71803],[-135.24522,55.79331],[-135.30977,55.8721],[-135.36388,55.93786],[-135.40466,56.01559],[-135.44166,56.08582],[-135.49446,56.15728],[-135.54135,56.22048],[-135.59072,56.28678],[-135.64565,56.36022]]}},{"type":"Feature","properties":{"name":"Totschunda","FaultID":4020,"state":"AK","rate":7.400000095367432,"rateType":"SLIP_RATE","dip":90,"rake":180,"DEPRECATED":true,"DEPRECATED_WHY":"Coarser duplicate: 7.3 km/vertex where DGGS QFF \"Totschunda fault\" runs within 2.5 km at finer spacing; hidden on landslidescience.org since 2026-09-20.","DEPRECATED_BY":"DGGS QFF: Totschunda fault"},"geometry":{"type":"LineString","coordinates":[[-143.37214,62.8433],[-143.30671,62.79963],[-143.22788,62.71985],[-143.13134,62.66307],[-143.04806,62.62493],[-142.94387,62.57703],[-142.8546,62.53018],[-142.7594,62.47999],[-142.71149,62.45136],[-142.67116,62.39758],[-142.59885,62.33314],[-142.53048,62.27193],[-142.45239,62.21992],[-142.34611,62.14878],[-142.29787,62.10324],[-142.23877,62.04724],[-142.17942,62.00522],[-142.11863,61.96203],[-142.04802,61.91167],[-141.98596,61.86726],[-141.91907,61.8141],[-141.8463,61.75605],[-141.77254,61.71839],[-141.70265,61.6826],[-141.58751,61.63809],[-141.46973,61.59233],[-141.38409,61.54898],[-141.29495,61.50369],[-141.26389,61.49154]]}},{"type":"Feature","properties":{"name":"Totschunda","FaultID":4020,"state":"AK","rate":7.400000095367432,"rateType":"SLIP_RATE","dip":90,"rake":180},"geometry":{"type":"LineString","coordinates":[[-141.26044,61.49019],[-141.18452,61.4605]]}},{"type":"Feature","properties":{"name":"Chugach - St.Elias","FaultID":4271,"state":"AK","rate":4,"rateType":"SLIP_RATE","dip":45,"rake":90,"DEPRECATED":true,"DEPRECATED_WHY":"Coarser duplicate: 4.4 km/vertex where DGGS QFF \"Chugach-St. Elias fault (Chugach-St. Elias fold and thrust belt)\" runs within 2.5 km at finer spacing; hidden on landslidescience.org since 2026-09-20.","DEPRECATED_BY":"DGGS QFF: Chugach-St. Elias fault (Chugach-St. Elias fold and thrust belt)"},"geometry":{"type":"LineString","coordinates":[[-139.50749,60.05083],[-139.58876,60.0886],[-139.61068,60.09572],[-139.63925,60.09995],[-139.67523,60.09927],[-139.6907,60.10009],[-139.76239,60.1135],[-139.97214,60.12513],[-140.01497,60.12499],[-140.05848,60.13238],[-140.09159,60.14169],[-140.13784,60.14729],[-140.186,60.14921],[-140.20743,60.15413],[-140.25004,60.17876],[-140.32652,60.21092],[-140.35827,60.22323],[-140.41696,60.23977],[-140.49249,60.25552],[-140.52886,60.26277]]}},{"type":"Feature","properties":{"name":"Chugach - St.Elias","FaultID":4271,"state":"AK","rate":4,"rateType":"SLIP_RATE","dip":45,"rake":90},"geometry":{"type":"LineString","coordinates":[[-140.53291,60.26357],[-140.56928,60.27081],[-140.69307,60.2997],[-140.83511,60.33264],[-141.01801,60.37474]]}},{"type":"Feature","properties":{"name":"Denali (east, middle)","FaultID":4007,"state":"YT","rate":2,"rateType":"SLIP_RATE","dip":90,"rake":180,"DEPRECATED":true,"DEPRECATED_WHY":"Coarser duplicate: 8.8 km/vertex where DGGS QFF \"Denali fault (Central Muldrow-Alsek section)\" runs within 2.5 km at finer spacing; hidden on landslidescience.org since 2026-09-20.","DEPRECATED_BY":"DGGS QFF: Denali fault (Central Muldrow-Alsek section)"},"geometry":{"type":"LineString","coordinates":[[-142.01152,62.4239],[-142.00068,62.42046],[-141.88361,62.38326],[-141.7765,62.34906],[-141.7351,62.33943]]}},{"type":"Feature","properties":{"name":"Denali (east, middle)","FaultID":4007,"state":"YT","rate":2,"rateType":"SLIP_RATE","dip":90,"rake":180},"geometry":{"type":"LineString","coordinates":[[-141.73097,62.33847],[-141.5654,62.29993],[-141.56156,62.29875]]}},{"type":"Feature","properties":{"name":"Denali (east, middle)","FaultID":4007,"state":"YT","rate":2,"rateType":"SLIP_RATE","dip":90,"rake":180,"DEPRECATED":true,"DEPRECATED_WHY":"Coarser duplicate: 8.8 km/vertex where DGGS QFF \"Denali fault (Central Muldrow-Alsek section)\" runs within 2.5 km at finer spacing; hidden on landslidescience.org since 2026-09-20.","DEPRECATED_BY":"DGGS QFF: Denali fault (Central Muldrow-Alsek section)"},"geometry":{"type":"LineString","coordinates":[[-141.55772,62.29756],[-141.43485,62.25962],[-141.29406,62.23154],[-141.15372,62.20336],[-141.01255,62.15759],[-140.87505,62.11274],[-140.73471,62.0667],[-140.61662,62.01597],[-140.49368,61.96289],[-140.36912,61.90881],[-140.2273,61.84688],[-140.10875,61.79204],[-139.98067,61.73246],[-139.85974,61.67589],[-139.75834,61.62823],[-139.62825,61.56675],[-139.48258,61.51437],[-139.34354,61.46406],[-139.24821,61.41901],[-139.14002,61.36765],[-139.04401,61.32794],[-138.92794,61.27971],[-138.81647,61.22708],[-138.7181,61.18042],[-138.6006,61.1244],[-138.52199,61.07907],[-138.49738,61.06482]]}},{"type":"Feature","properties":{"name":"Denali (east, middle)","FaultID":4007,"state":"YT","rate":2,"rateType":"SLIP_RATE","dip":90,"rake":180},"geometry":{"type":"LineString","coordinates":[[-138.49464,61.06323],[-138.4208,61.02046],[-138.31665,60.97215],[-138.23718,60.93514],[-138.1196,60.87632],[-138.00577,60.81908]]}},{"type":"Feature","properties":{"name":"Suckling Hills","FaultID":4272,"state":"AK","rate":4.699999809265137,"rateType":"SLIP_RATE","dip":60,"rake":90},"geometry":{"type":"LineString","coordinates":[[-143.75068,60.111],[-143.74463,60.10496],[-143.73859,60.07657],[-143.7531,60.06689],[-143.78939,60.04573],[-143.81721,60.02454],[-143.84625,60.00698],[-143.93213,59.99668]]}},{"type":"Feature","properties":{"name":"Connector (inferred)","FaultID":4022,"state":"AK","rate":12.899999618530273,"rateType":"SLIP_RATE","dip":85,"rake":176},"geometry":{"type":"LineString","coordinates":[[-138.54086,59.52813],[-138.60087,59.60252],[-138.65032,59.66355],[-138.70397,59.7295],[-138.78419,59.80823],[-138.87652,59.89833],[-138.94672,59.96646],[-139.0296,60.03345],[-139.10138,60.0912],[-139.16419,60.14154],[-139.2374,60.20604],[-139.31711,60.27593],[-139.44287,60.33995],[-139.56828,60.39104],[-139.78024,60.46468],[-139.8974,60.53519],[-139.93963,60.64852],[-139.98464,60.7737],[-140.01173,60.87569],[-140.09321,60.99028],[-140.20821,61.10619],[-140.38861,61.20551],[-140.50384,61.27528],[-140.61191,61.33166],[-140.71948,61.41789]]}},{"type":"Feature","properties":{"name":"Malaspina","FaultID":4273,"state":"AK","rate":5,"rateType":"SLIP_RATE","dip":20,"rake":90,"DEPRECATED":true,"DEPRECATED_WHY":"Coarser duplicate: 6.7 km/vertex where DGGS QFF \"Malaspina fault (Chugach-St. Elias fold and thrust belt)\" runs within 2.5 km at finer spacing; hidden on landslidescience.org since 2026-09-20.","DEPRECATED_BY":"DGGS QFF: Malaspina fault (Chugach-St. Elias fold and thrust belt)"},"geometry":{"type":"LineString","coordinates":[[-140.911,60.07347],[-140.98578,60.0602],[-141.05277,60.04708],[-141.15695,60.01904],[-141.21198,60.00577],[-141.24575,59.99208]]}},{"type":"Feature","properties":{"name":"Malaspina","FaultID":4273,"state":"AK","rate":5,"rateType":"SLIP_RATE","dip":20,"rake":90},"geometry":{"type":"LineString","coordinates":[[-141.2495,59.99055],[-141.4484,59.90991]]}},{"type":"Feature","properties":{"name":"Kaktovik (east)","FaultID":4303,"state":"AK","rate":0.10000000149011612,"rateType":"NOMINAL","dip":32,"rake":-90},"geometry":{"type":"LineString","coordinates":[[-144.57642,69.58497],[-144.43519,69.5382]]}},{"type":"Feature","properties":{"name":"Purcell Mountains","FaultID":4211,"state":"AK","rate":0.20000000298023224,"rateType":"NOMINAL","dip":60,"rake":-90,"DEPRECATED":true,"DEPRECATED_WHY":"Coarser duplicate: 8.8 km/vertex where USGS 2021 ArcticDEM traces \"Purcell Mountain\" runs within 2.5 km at finer spacing; hidden on landslidescience.org since 2026-09-20.","DEPRECATED_BY":"USGS 2021 ArcticDEM traces: Purcell Mountain"},"geometry":{"type":"LineString","coordinates":[[-157.16305,66.14561],[-156.94643,66.13836],[-156.7722,66.11523],[-156.57903,66.11737],[-156.3788,66.11936]]}},{"type":"Feature","properties":{"name":"Marsh Creek","FaultID":4304,"state":"AK","rate":0.009999999776482582,"rateType":"NOMINAL","dip":65,"rake":90,"DEPRECATED":true,"DEPRECATED_WHY":"Coarser duplicate: 8.6 km/vertex where DGGS QFF \"Marsh Creek anticline\" runs within 2.5 km at finer spacing; hidden on landslidescience.org since 2026-09-20.","DEPRECATED_BY":"DGGS QFF: Marsh Creek anticline"},"geometry":{"type":"LineString","coordinates":[[-145.75627,69.772],[-145.59911,69.79653],[-145.43855,69.82141],[-145.23635,69.85247],[-145.00608,69.88748],[-144.73839,69.91249],[-144.45881,69.93814]]}},{"type":"Feature","properties":{"name":"Dall Mountain","FaultID":4212,"state":"AK","rate":0.20000000298023224,"rateType":"NOMINAL","dip":60,"rake":-90,"DEPRECATED":true,"DEPRECATED_WHY":"Coarser duplicate: 5.3 km/vertex where USGS 2021 ArcticDEM traces \"Dall Mountain\" runs within 2.5 km at finer spacing; hidden on landslidescience.org since 2026-09-20.","DEPRECATED_BY":"USGS 2021 ArcticDEM traces: Dall Mountain"},"geometry":{"type":"LineString","coordinates":[[-149.7558,66.46775],[-149.71917,66.4239],[-149.71369,66.36747],[-149.6736,66.32548],[-149.65522,66.28608],[-149.57196,66.22771],[-149.51423,66.21123]]}},{"type":"Feature","properties":{"name":"Pivot","FaultID":4213,"state":"AK","rate":0.009999999776482582,"rateType":"NOMINAL","dip":90,"rake":180},"geometry":{"type":"LineString","coordinates":[[-157.35917,65.19713],[-157.23728,65.2366],[-157.11676,65.27542],[-156.99285,65.31514],[-156.86639,65.34754],[-156.74594,65.37824]]}},{"type":"Feature","properties":{"name":"Bendeleben","FaultID":4214,"state":"AK","rate":0.20000000298023224,"rateType":"NOMINAL","dip":60,"rake":-90,"DEPRECATED":true,"DEPRECATED_WHY":"Coarser duplicate: 9.6 km/vertex where USGS 2021 ArcticDEM traces \"Bendeleben\" runs within 2.5 km at finer spacing; hidden on landslidescience.org since 2026-09-20.","DEPRECATED_BY":"USGS 2021 ArcticDEM traces: Bendeleben"},"geometry":{"type":"LineString","coordinates":[[-163.69813,65.09349],[-163.35974,65.16999],[-163.15799,65.15721],[-163.05429,65.17339],[-162.91102,65.16233],[-162.76576,65.17553]]}},{"type":"Feature","properties":{"name":"Kaltag","FaultID":4223,"state":"AK","rate":0.009999999776482582,"rateType":"SLIP_RATE","dip":90,"rake":180,"DEPRECATED":true,"DEPRECATED_WHY":"Coarser duplicate: 5.7 km/vertex where DGGS QFF \"Kaltag fault\" runs within 2.5 km at finer spacing; hidden on landslidescience.org since 2026-09-20.","DEPRECATED_BY":"DGGS QFF: Kaltag fault"},"geometry":{"type":"LineString","coordinates":[[-160.82558,63.7178],[-160.76578,63.73839],[-160.70465,63.75938],[-160.6345,63.78341],[-160.57009,63.8054],[-160.49479,63.83104],[-160.42538,63.8546],[-160.32521,63.87938],[-160.23002,63.90283],[-160.14947,63.92798],[-160.05898,63.95614],[-159.9387,63.9934],[-159.85784,64.01833]]}},{"type":"Feature","properties":{"name":"Kaltag","FaultID":4223,"state":"AK","rate":0.009999999776482582,"rateType":"SLIP_RATE","dip":90,"rake":180},"geometry":{"type":"LineString","coordinates":[[-159.8538,64.01957],[-159.82145,64.02954],[-159.77018,64.0478],[-159.72304,64.06455],[-159.69907,64.07305]]}},{"type":"Feature","properties":{"name":"Kaltag","FaultID":4223,"state":"AK","rate":0.009999999776482582,"rateType":"SLIP_RATE","dip":90,"rake":180,"DEPRECATED":true,"DEPRECATED_WHY":"Coarser duplicate: 5.7 km/vertex where DGGS QFF \"Kaltag fault\" runs within 2.5 km at finer spacing; hidden on landslidescience.org since 2026-09-20.","DEPRECATED_BY":"DGGS QFF: Kaltag fault"},"geometry":{"type":"LineString","coordinates":[[-159.69508,64.07447],[-159.68309,64.07872],[-159.6243,64.09952],[-159.57173,64.11484],[-159.50622,64.13389],[-159.42463,64.15753],[-159.33839,64.18244],[-159.26319,64.20408],[-159.18456,64.22664],[-159.10954,64.24643],[-159.03522,64.26597],[-158.96366,64.28472],[-158.89201,64.30345],[-158.82168,64.32177],[-158.73478,64.34434],[-158.63373,64.35664],[-158.54872,64.36694],[-158.46011,64.37761],[-158.36361,64.38917],[-158.26777,64.40057],[-158.16665,64.41254],[-158.05381,64.4258],[-157.93654,64.43946]]}},{"type":"Feature","properties":{"name":"Kaltag","FaultID":4223,"state":"AK","rate":0.009999999776482582,"rateType":"SLIP_RATE","dip":90,"rake":180},"geometry":{"type":"LineString","coordinates":[[-157.93165,64.44003],[-157.91211,64.44231],[-157.79811,64.45549],[-157.67238,64.46991],[-157.53758,64.48525],[-157.45129,64.49497]]}},{"type":"Feature","properties":{"name":"Kaltag","FaultID":4223,"state":"AK","rate":0.009999999776482582,"rateType":"SLIP_RATE","dip":90,"rake":180,"DEPRECATED":true,"DEPRECATED_WHY":"Coarser duplicate: 5.7 km/vertex where DGGS QFF \"Kaltag fault\" runs within 2.5 km at finer spacing; hidden on landslidescience.org since 2026-09-20.","DEPRECATED_BY":"DGGS QFF: Kaltag fault"},"geometry":{"type":"LineString","coordinates":[[-157.44622,64.49554],[-157.38531,64.50241],[-157.25432,64.51704],[-157.12562,64.53128],[-157.01144,64.55004],[-156.90765,64.56699],[-156.82171,64.58096],[-156.70506,64.59983],[-156.57618,64.62054],[-156.41827,64.64573],[-156.25419,64.67169],[-156.19099,64.68161]]}},{"type":"Feature","properties":{"name":"Kaltag","FaultID":4223,"state":"AK","rate":0.009999999776482582,"rateType":"SLIP_RATE","dip":90,"rake":180},"geometry":{"type":"LineString","coordinates":[[-156.18613,64.68238],[-156.11808,64.69306],[-156.05467,64.70294]]}},{"type":"Feature","properties":{"name":"Kaltag","FaultID":4223,"state":"AK","rate":0.009999999776482582,"rateType":"SLIP_RATE","dip":90,"rake":180,"DEPRECATED":true,"DEPRECATED_WHY":"Coarser duplicate: 5.7 km/vertex where DGGS QFF \"Kaltag fault\" runs within 2.5 km at finer spacing; hidden on landslidescience.org since 2026-09-20.","DEPRECATED_BY":"DGGS QFF: Kaltag fault"},"geometry":{"type":"LineString","coordinates":[[-156.0498,64.7037],[-155.97176,64.71587],[-155.84586,64.73535],[-155.74662,64.75061],[-155.64092,64.76679],[-155.45886,64.79983],[-155.34846,64.82264],[-155.25474,64.84214],[-155.14907,64.86401],[-155.02814,64.88116],[-154.89607,64.89975],[-154.76382,64.91824],[-154.6348,64.93975],[-154.51638,64.95764],[-154.4169,64.97183],[-154.32756,64.98645],[-154.20623,65.00164],[-154.08508,65.0167],[-153.96402,65.03192],[-153.82343,65.04946],[-153.67439,65.0679],[-153.55163,65.07947],[-153.47342,65.08679],[-153.35765,65.09755],[-153.25086,65.10482],[-153.13702,65.11249],[-153.03713,65.11461],[-152.95015,65.11639],[-152.82557,65.12356],[-152.71437,65.12988],[-152.66099,65.13317]]}},{"type":"Feature","properties":{"name":"Kaltag","FaultID":4223,"state":"AK","rate":0.009999999776482582,"rateType":"SLIP_RATE","dip":90,"rake":180},"geometry":{"type":"LineString","coordinates":[[-152.65565,65.13349],[-152.55422,65.13974],[-152.37454,65.14654],[-152.1741,65.15859],[-152.01759,65.16953],[-151.97999,65.1732]]}},{"type":"Feature","properties":{"name":"Kaltag","FaultID":4223,"state":"AK","rate":0.009999999776482582,"rateType":"SLIP_RATE","dip":90,"rake":180,"DEPRECATED":true,"DEPRECATED_WHY":"Coarser duplicate: 5.7 km/vertex where DGGS QFF \"Kaltag fault\" runs within 2.5 km at finer spacing; hidden on landslidescience.org since 2026-09-20.","DEPRECATED_BY":"DGGS QFF: Kaltag fault"},"geometry":{"type":"LineString","coordinates":[[-151.97462,65.17372],[-151.87257,65.18367],[-151.77845,65.19704],[-151.64732,65.20393],[-151.467,65.23]]}},{"type":"Feature","properties":{"name":"Iditarod - Nixon Fork (east)","FaultID":4224,"state":"AK","rate":0.009999999776482582,"rateType":"NOMINAL","dip":90,"rake":180,"DEPRECATED":true,"DEPRECATED_WHY":"Coarser duplicate: 7.7 km/vertex where DGGS QFF \"Iditarod-Nixon Fork fault\" runs within 2.5 km at finer spacing; hidden on landslidescience.org since 2026-09-20.","DEPRECATED_BY":"DGGS QFF: Iditarod-Nixon Fork fault"},"geometry":{"type":"LineString","coordinates":[[-155.42932,62.99467],[-155.31016,63.04291],[-155.1909,63.09095],[-155.07338,63.14879],[-154.94072,63.2137],[-154.83378,63.25776],[-154.72713,63.30149],[-154.59893,63.36024],[-154.47487,63.39796],[-154.34849,63.43618],[-154.27874,63.47427],[-154.19981,63.51722],[-154.08687,63.53661],[-153.98728,63.57222]]}},{"type":"Feature","properties":{"name":"Peters Dome","FaultID":4238,"state":"AK","rate":1,"rateType":"SLIP_RATE","dip":45,"rake":90,"DEPRECATED":true,"DEPRECATED_WHY":"Coarser duplicate: 3.5 km/vertex where DGGS QFF \"Peters Dome fault (Northern Foothills fold and thrust belt)\" runs within 2.5 km at finer spacing; hidden on landslidescience.org since 2026-09-20.","DEPRECATED_BY":"DGGS QFF: Peters Dome fault (Northern Foothills fold and thrust belt)"},"geometry":{"type":"LineString","coordinates":[[-152.27239,62.91137],[-152.07774,62.91851],[-152.07228,62.95497],[-152.00385,62.98542],[-151.96366,62.99645],[-151.92372,63.02457],[-151.83096,63.05905],[-151.77516,63.09081],[-151.71394,63.10568],[-151.66464,63.10872],[-151.63127,63.12122],[-151.59403,63.12781],[-151.57633,63.16344],[-151.54076,63.2125],[-151.52007,63.22681],[-151.48246,63.24068],[-151.45297,63.25503],[-151.43538,63.26603],[-151.39877,63.27411],[-151.34797,63.27039],[-151.32667,63.26233]]}},{"type":"Feature","properties":{"name":"Chedotlothna","FaultID":4239,"state":"AK","rate":0.009999999776482582,"rateType":"NOMINAL","dip":45,"rake":90},"geometry":{"type":"LineString","coordinates":[[-151.59403,63.12781],[-151.54993,63.13657],[-151.50454,63.16012],[-151.37245,63.1707],[-151.35925,63.16449],[-151.27684,63.17106],[-151.22104,63.17268]]}},{"type":"Feature","properties":{"name":"Denali (center, west)","FaultID":4003,"state":"AK","rate":9.899999618530273,"rateType":"SLIP_RATE","dip":90,"rake":180,"DEPRECATED":true,"DEPRECATED_WHY":"Coarser duplicate: 10.2 km/vertex where USGS 2021 ArcticDEM traces \"Denali (west Muldrow-Alsek)\" runs within 2.5 km at finer spacing; hidden on landslidescience.org since 2026-09-20.","DEPRECATED_BY":"USGS 2021 ArcticDEM traces: Denali (west Muldrow-Alsek)"},"geometry":{"type":"LineString","coordinates":[[-151.00396,63.17654],[-150.91063,63.1977],[-150.58101,63.23837],[-150.21235,63.29619],[-150.06685,63.32348],[-149.99715,63.3294],[-149.73423,63.36493],[-149.49841,63.38941],[-149.29828,63.40751],[-149.10475,63.42416],[-148.95597,63.44175],[-148.83762,63.45403]]}},{"type":"Feature","properties":{"name":"Susitna Glacier","FaultID":4254,"state":"AK","rate":1.7999999523162842,"rateType":"SLIP_RATE","dip":34,"rake":90,"DEPRECATED":true,"DEPRECATED_WHY":"Coarser duplicate: 3.0 km/vertex where DGGS QFF \"Susitna Glacier fault\" runs within 2.5 km at finer spacing; hidden on landslidescience.org since 2026-09-20.","DEPRECATED_BY":"DGGS QFF: Susitna Glacier fault"},"geometry":{"type":"LineString","coordinates":[[-146.9772,63.52474],[-147.02137,63.50098],[-147.07124,63.48843],[-147.12232,63.46792],[-147.1974,63.44811],[-147.23476,63.42749],[-147.30106,63.41768],[-147.33466,63.42539],[-147.39258,63.42092],[-147.43416,63.41468],[-147.47356,63.41889],[-147.53323,63.41024],[-147.60417,63.40382],[-147.66617,63.4063],[-147.72938,63.42241]]}},{"type":"Feature","properties":{"name":"Donnelly Dome","FaultID":4240,"state":"AK","rate":1,"rateType":"SLIP_RATE","dip":45,"rake":90,"DEPRECATED":true,"DEPRECATED_WHY":"Coarser duplicate: 2.4 km/vertex where DGGS QFF \"Donnelly Dome fault (Northern Foothills fold and thrust belt)\" runs within 2.5 km at finer spacing; hidden on landslidescience.org since 2026-09-20.","DEPRECATED_BY":"DGGS QFF: Donnelly Dome fault (Northern Foothills fold and thrust belt)"},"geometry":{"type":"LineString","coordinates":[[-145.79477,63.79371],[-145.73332,63.77455],[-145.6535,63.76584],[-145.63387,63.76526],[-145.61659,63.76687],[-145.57842,63.77677],[-145.53459,63.79344]]}},{"type":"Feature","properties":{"name":"Granite Mountain (east)","FaultID":4241,"state":"AK","rate":0.20000000298023224,"rateType":"NOMINAL","dip":45,"rake":90,"DEPRECATED":true,"DEPRECATED_WHY":"Coarser duplicate: 5.1 km/vertex where DGGS QFF \"Granite Mountain fault (Northern Foothills fold and thrust belt)\" runs within 2.5 km at finer spacing; hidden on landslidescience.org since 2026-09-20.","DEPRECATED_BY":"DGGS QFF: Granite Mountain fault (Northern Foothills fold and thrust belt)"},"geometry":{"type":"LineString","coordinates":[[-145.37401,63.85494],[-145.23584,63.78827],[-145.19297,63.75035],[-145.16953,63.73977],[-145.12703,63.73288],[-145.05478,63.68785]]}},{"type":"Feature","properties":{"name":"Canteen","FaultID":4242,"state":"AK","rate":1.600000023841858,"rateType":"SLIP_RATE","dip":90,"rake":0,"DEPRECATED":true,"DEPRECATED_WHY":"Coarser duplicate: 2.9 km/vertex where DGGS QFF \"Canteen fault (Northern Foothills fold and thrust belt))\" runs within 2.5 km at finer spacing; hidden on landslidescience.org since 2026-09-20.","DEPRECATED_BY":"DGGS QFF: Canteen fault (Northern Foothills fold and thrust belt))"},"geometry":{"type":"LineString","coordinates":[[-145.04487,63.6913],[-145.00891,63.69549],[-144.94114,63.71869],[-144.90949,63.73446],[-144.84084,63.74898]]}},{"type":"Feature","properties":{"name":"DOT T Johnson","FaultID":4243,"state":"AK","rate":1,"rateType":"SLIP_RATE","dip":45,"rake":90,"DEPRECATED":true,"DEPRECATED_WHY":"Coarser duplicate: 3.3 km/vertex where DGGS QFF \"Dot \"T\" Johnson fault (Northern Foothills fold and thrust belt)\" runs within 2.5 km at finer spacing; hidden on landslidescience.org since 2026-09-20.","DEPRECATED_BY":"DGGS QFF: Dot \"T\" Johnson fault (Northern Foothills fold and thrust belt)"},"geometry":{"type":"LineString","coordinates":[[-144.83384,63.748],[-144.80495,63.70219],[-144.76755,63.69019],[-144.74054,63.67323],[-144.70729,63.66688],[-144.61791,63.66263],[-144.56613,63.67457],[-144.44977,63.69177],[-144.36248,63.70125],[-144.34387,63.70894],[-144.3186,63.70768],[-144.2855,63.69865],[-144.22158,63.69524],[-144.09836,63.67585],[-144.06874,63.66365],[-144.00069,63.66215]]}},{"type":"Feature","properties":{"name":"Cathedral Rapids","FaultID":4244,"state":"AK","rate":1,"rateType":"SLIP_RATE","dip":45,"rake":90,"DEPRECATED":true,"DEPRECATED_WHY":"Coarser duplicate: 4.2 km/vertex where DGGS QFF \"Cathedral Rapids fault (Northern Foothills fold and thrust belt)\" runs within 2.5 km at finer spacing; hidden on landslidescience.org since 2026-09-20.","DEPRECATED_BY":"DGGS QFF: Cathedral Rapids fault (Northern Foothills fold and thrust belt)"},"geometry":{"type":"LineString","coordinates":[[-143.99997,63.43651],[-143.92523,63.42667],[-143.75491,63.38245],[-143.67702,63.37653],[-143.62126,63.38645],[-143.51581,63.36704],[-143.4713,63.36442],[-143.41134,63.34679],[-143.36297,63.31645],[-143.31052,63.29202],[-143.27904,63.27418],[-143.26863,63.25305],[-143.2286,63.23055],[-143.17996,63.19536]]}},{"type":"Feature","properties":{"name":"Denali (center, east)","FaultID":4005,"state":"AK","rate":12.899999618530273,"rateType":"SLIP_RATE","dip":90,"rake":180,"DEPRECATED":true,"DEPRECATED_WHY":"Coarser duplicate: 6.5 km/vertex where DGGS QFF \"Denali fault (West Muldrow-Alsek section)\" runs within 2.5 km at finer spacing; hidden on landslidescience.org since 2026-09-20.","DEPRECATED_BY":"DGGS QFF: Denali fault (West Muldrow-Alsek section)"},"geometry":{"type":"LineString","coordinates":[[-145.86889,63.41824],[-145.77414,63.39835],[-145.69886,63.38248],[-145.61174,63.36405],[-145.52222,63.34503],[-145.40855,63.32077],[-145.31455,63.30061],[-145.23028,63.28247],[-145.15077,63.26529],[-145.06453,63.25152],[-144.97151,63.23659],[-144.83944,63.20752],[-144.72472,63.18214],[-144.58577,63.15121],[-144.45156,63.1201],[-144.32896,63.09153],[-144.2204,63.0661],[-144.08316,63.03377],[-143.95711,63.00181],[-143.82058,62.967],[-143.6759,62.92988],[-143.53817,62.89432],[-143.44633,62.86611],[-143.32286,62.828]]}},{"type":"Feature","properties":{"name":"McCallum Creek","FaultID":4255,"state":"AK","rate":0.6000000238418579,"rateType":"SLIP_RATE","dip":35,"rake":90,"DEPRECATED":true,"DEPRECATED_WHY":"Coarser duplicate: 10.0 km/vertex where DGGS QFF \"McCallum Creek fault\" runs within 2.5 km at finer spacing; hidden on landslidescience.org since 2026-09-20.","DEPRECATED_BY":"DGGS QFF: McCallum Creek fault"},"geometry":{"type":"LineString","coordinates":[[-145.1596,63.21448],[-145.37504,63.20197],[-145.51344,63.21961],[-145.64475,63.25274],[-145.73798,63.37046]]}},{"type":"Feature","properties":{"name":"Yakutat Foothills","FaultID":4274,"state":"AK","rate":5,"rateType":"SLIP_RATE","dip":70,"rake":90,"DEPRECATED":true,"DEPRECATED_WHY":"Coarser duplicate: 5.7 km/vertex where DGGS QFF \"Yakutat fault (also known as Foothills fault)\" runs within 2.5 km at finer spacing; hidden on landslidescience.org since 2026-09-20.","DEPRECATED_BY":"DGGS QFF: Yakutat fault (also known as Foothills fault)"},"geometry":{"type":"LineString","coordinates":[[-138.42628,59.06731],[-138.49771,59.10728],[-138.56703,59.14594],[-138.63119,59.18162],[-138.70158,59.22063],[-138.78098,59.26205],[-138.85026,59.29806],[-138.90898,59.32849],[-138.96156,59.3585],[-139.00738,59.3846],[-139.06159,59.41539],[-139.12015,59.4518],[-139.17141,59.48357],[-139.21782,59.52193],[-139.25925,59.55608],[-139.31592,59.59609],[-139.36267,59.629],[-139.44422,59.67487],[-139.52087,59.71783],[-139.58077,59.75527],[-139.60302,59.80218],[-139.60507,59.80649]]}},{"type":"Feature","properties":{"name":"Yakutat Foothills","FaultID":4274,"state":"AK","rate":5,"rateType":"SLIP_RATE","dip":70,"rake":90},"geometry":{"type":"LineString","coordinates":[[-139.6061,59.80865],[-139.62355,59.84533],[-139.63116,59.90221]]}},{"type":"Feature","properties":{"name":"Ten Fathom","FaultID":4275,"state":"AK","rate":3.5,"rateType":"SLIP_RATE","dip":60,"rake":90,"DEPRECATED":true,"DEPRECATED_WHY":"Coarser duplicate: 6.3 km/vertex where DGGS QFF \"Tenfathom fault\" runs within 2.5 km at finer spacing; hidden on landslidescience.org since 2026-09-20.","DEPRECATED_BY":"DGGS QFF: Tenfathom fault"},"geometry":{"type":"LineString","coordinates":[[-144.19804,59.96163],[-144.26749,59.93816],[-144.3279,59.91143],[-144.38233,59.88608],[-144.49957,59.82],[-144.59665,59.75022]]}},{"type":"Feature","properties":{"name":"Ragged Mountain","FaultID":4276,"state":"AK","rate":1,"rateType":"VERTICAL_SLIP_RATE","dip":30,"rake":45,"DEPRECATED":true,"DEPRECATED_WHY":"Coarser duplicate: 3.6 km/vertex where DGGS QFF \"Ragged Mountain fault\" runs within 2.5 km at finer spacing; hidden on landslidescience.org since 2026-09-20.","DEPRECATED_BY":"DGGS QFF: Ragged Mountain fault"},"geometry":{"type":"LineString","coordinates":[[-144.6058,60.1535],[-144.54592,60.20786],[-144.52322,60.22842],[-144.52134,60.25127],[-144.51728,60.25935],[-144.51977,60.27568],[-144.53036,60.30843],[-144.56821,60.34635],[-144.59822,60.38694],[-144.65451,60.41732]]}},{"type":"Feature","properties":{"name":"Bagley (middle)","FaultID":4288,"state":"AK","rate":1,"rateType":"NOMINAL","dip":45,"rake":90,"DEPRECATED":true,"DEPRECATED_WHY":"Coarser duplicate: 6.4 km/vertex where DGGS QFF \"Bagley fault (Chugach-St. Elias fold and thrust belt))\" runs within 2.5 km at finer spacing; hidden on landslidescience.org since 2026-09-20.","DEPRECATED_BY":"DGGS QFF: Bagley fault (Chugach-St. Elias fold and thrust belt))"},"geometry":{"type":"LineString","coordinates":[[-142.56513,60.56162],[-142.73677,60.57803],[-142.84539,60.5923],[-142.95599,60.60673],[-143.09372,60.61977],[-143.22613,60.63217],[-143.33581,60.63203],[-143.43123,60.63184],[-143.53011,60.62239],[-143.61489,60.61423],[-143.70849,60.60515],[-143.82042,60.59421],[-143.93046,60.57225],[-144.0243,60.55343],[-144.11477,60.52992],[-144.21565,60.50359],[-144.35583,60.48573],[-144.45768,60.48796],[-144.59595,60.51316],[-144.70115,60.53222]]}},{"type":"Feature","properties":{"name":"Etches","FaultID":4278,"state":"AK","rate":0.009999999776482582,"rateType":"NOMINAL","dip":45,"rake":90,"DEPRECATED":true,"DEPRECATED_WHY":"Coarser duplicate: 3.7 km/vertex where DGGS QFF \"Etches fault\" runs within 2.5 km at finer spacing; hidden on landslidescience.org since 2026-09-20.","DEPRECATED_BY":"DGGS QFF: Etches fault"},"geometry":{"type":"LineString","coordinates":[[-146.07537,60.41868],[-146.10646,60.41311],[-146.14425,60.41255],[-146.25963,60.3529],[-146.28472,60.34203],[-146.35587,60.32952],[-146.38548,60.33249],[-146.42087,60.33274],[-146.46959,60.32762],[-146.52203,60.32326],[-146.5614,60.31113],[-146.71188,60.24762]]}},{"type":"Feature","properties":{"name":"Montague Strait","FaultID":4279,"state":"AK","rate":0.20000000298023224,"rateType":"NOMINAL","dip":61,"rake":-90},"geometry":{"type":"LineString","coordinates":[[-147.91173,59.96426],[-147.8661,59.98522],[-147.82189,60.03592],[-147.76865,60.09983],[-147.71303,60.16907],[-147.69497,60.21002],[-147.63175,60.26863],[-147.55902,60.36177],[-147.53763,60.39449],[-147.52004,60.51657],[-147.52859,60.57253]]}},{"type":"Feature","properties":{"name":"Hanning Bay","FaultID":4280,"state":"AK","rate":0.20000000298023224,"rateType":"NOMINAL","dip":45,"rake":90,"DEPRECATED":true,"DEPRECATED_WHY":"Coarser duplicate: 1.9 km/vertex where DGGS QFF \"Hanning Bay fault\" runs within 2.5 km at finer spacing; hidden on landslidescience.org since 2026-09-20.","DEPRECATED_BY":"DGGS QFF: Hanning Bay fault"},"geometry":{"type":"LineString","coordinates":[[-147.69521,59.96872],[-147.72682,59.94923],[-147.74284,59.94558],[-147.77357,59.93101],[-147.79234,59.91683],[-147.81392,59.90633]]}},{"type":"Feature","properties":{"name":"Pass Creek","FaultID":4256,"state":"AK","rate":0.5,"rateType":"SLIP_RATE","dip":38,"rake":-90},"geometry":{"type":"LineString","coordinates":[[-151.95506,62.18759],[-151.88177,62.23964],[-151.8381,62.26652],[-151.7098,62.32102]]}},{"type":"Feature","properties":{"name":"Pass Creek","FaultID":4256,"state":"AK","rate":0.5,"rateType":"SLIP_RATE","dip":38,"rake":-90,"DEPRECATED":true,"DEPRECATED_WHY":"Coarser duplicate: 5.5 km/vertex where DGGS QFF \"Pass Creek fault\" runs within 2.5 km at finer spacing; hidden on landslidescience.org since 2026-09-20.","DEPRECATED_BY":"DGGS QFF: Pass Creek fault"},"geometry":{"type":"LineString","coordinates":[[-151.70624,62.32253],[-151.64566,62.34827],[-151.62665,62.37392],[-151.55879,62.39332],[-151.46393,62.41124],[-151.39989,62.42951],[-151.34172,62.438]]}},{"type":"Feature","properties":{"name":"Bunco Lake","FaultID":4257,"state":"AK","rate":0.4000000059604645,"rateType":"SLIP_RATE","dip":45,"rake":90},"geometry":{"type":"LineString","coordinates":[[-150.51646,62.53076],[-150.46234,62.54119],[-150.44112,62.54962],[-150.40189,62.57133],[-150.38333,62.57977],[-150.35623,62.58637],[-150.34359,62.58719],[-150.3188,62.5869],[-150.28984,62.59328],[-150.25602,62.60578]]}},{"type":"Feature","properties":{"name":"Bulchitna Lake","FaultID":4258,"state":"AK","rate":0.30000001192092896,"rateType":"SLIP_RATE","dip":45,"rake":90},"geometry":{"type":"LineString","coordinates":[[-150.95446,61.846],[-150.89156,61.76489],[-150.87387,61.73133],[-150.86944,61.70557],[-150.88785,61.67417],[-150.88464,61.62968],[-150.87272,61.5964],[-150.85696,61.56048],[-150.85563,61.54214]]}},{"type":"Feature","properties":{"name":"Kahiltna River","FaultID":4259,"state":"AK","rate":0.5,"rateType":"SLIP_RATE","dip":45,"rake":90},"geometry":{"type":"LineString","coordinates":[[-150.75525,61.7781],[-150.75287,61.72861],[-150.74366,61.69224],[-150.72853,61.66687],[-150.69643,61.6458],[-150.68418,61.63521],[-150.66859,61.61678],[-150.63822,61.57283]]}},{"type":"Feature","properties":{"name":"Castle Mountain","FaultID":4262,"state":"AK","rate":0.5,"rateType":"SLIP_RATE","dip":85,"rake":135,"DEPRECATED":true,"DEPRECATED_WHY":"Coarser duplicate: 9.5 km/vertex where DGGS QFF \"Castle Mountain fault (Susitna section)\" runs within 2.5 km at finer spacing; hidden on landslidescience.org since 2026-09-20.","DEPRECATED_BY":"DGGS QFF: Castle Mountain fault (Susitna section)"},"geometry":{"type":"LineString","coordinates":[[-148.48102,61.86714],[-148.63785,61.83405],[-148.89843,61.78257],[-149.26248,61.71148],[-149.50898,61.67346],[-149.75308,61.62554],[-149.81412,61.6176],[-149.91572,61.6046],[-150.13898,61.55566],[-150.18462,61.55217],[-150.28594,61.53675],[-150.38691,61.50581],[-150.48389,61.47333],[-150.55759,61.45707],[-150.59169,61.44003],[-150.6911,61.4137],[-151.10357,61.31414]]}},{"type":"Feature","properties":{"name":"Denali (east, south)","FaultID":4008,"state":"YT","rate":0.009999999776482582,"rateType":"NOMINAL","dip":90,"rake":180},"geometry":{"type":"LineString","coordinates":[[-138.00577,60.81908],[-137.96452,60.79173],[-137.90428,60.75168],[-137.87072,60.71852],[-137.84202,60.69011],[-137.80887,60.65722],[-137.76705,60.61562],[-137.71765,60.5669],[-137.65231,60.53527],[-137.59907,60.50943],[-137.54461,60.48293],[-137.49818,60.46029],[-137.44449,60.42672],[-137.38815,60.3914],[-137.33014,60.35492],[-137.27597,60.31877],[-137.22841,60.28694],[-137.16573,60.24486],[-137.12284,60.2063],[-137.07606,60.1641],[-137.01551,60.10931],[-136.97418,60.07834],[-136.91854,60.03652],[-136.86982,59.99979],[-136.81586,59.96737],[-136.76799,59.93854],[-136.71179,59.9046],[-136.64729,59.86554],[-136.5763,59.8224],[-136.51979,59.78795],[-136.45679,59.74944],[-136.38873,59.70769],[-136.32499,59.66847],[-136.25421,59.62477],[-136.17975,59.57967],[-136.09506,59.52818],[-136.02285,59.4841],[-135.94692,59.43759],[-135.86441,59.38685],[-135.79038,59.34114],[-135.71674,59.29551],[-135.62928,59.25992],[-135.53598,59.2218],[-135.47498,59.18118],[-135.41865,59.14356],[-135.35194,59.09887],[-135.29189,59.05866],[-135.27302,59.01722],[-135.24877,58.9638],[-135.24864,58.96352]]}},{"type":"Feature","properties":{"name":"Foreland Thrust (Pamplona)","FaultID":4281,"state":"AK","rate":32,"rateType":"SLIP_RATE","dip":45,"rake":90},"geometry":{"type":"LineString","coordinates":[[-141.4484,59.90991],[-141.61372,59.89312],[-141.67287,59.88715],[-141.8644,59.87002],[-141.98907,59.85453],[-142.14919,59.83485],[-142.20438,59.82826],[-142.30084,59.81404],[-142.36625,59.79221],[-142.4335,59.77172],[-142.48543,59.71445],[-142.4899,59.66873],[-142.49449,59.59515],[-142.52307,59.54578],[-142.56563,59.50532],[-142.59348,59.47414],[-142.62086,59.42755],[-142.68935,59.41047],[-142.75226,59.38712],[-142.82955,59.36019],[-142.91555,59.3522],[-143.0055,59.34354],[-143.05245,59.33311],[-143.1267,59.33744],[-143.18218,59.32894]]}},{"type":"Feature","properties":{"name":"Transition","FaultID":4282,"state":"AK","rate":4,"rateType":"SLIP_RATE","dip":90,"rake":180},"geometry":{"type":"LineString","coordinates":[[-143.18218,59.32894],[-143.09559,59.30127],[-143.0074,59.25804],[-142.91521,59.22858],[-142.85337,59.2103],[-142.83641,59.20344]]}},{"type":"Feature","properties":{"name":"Transition","FaultID":4282,"state":"AK","rate":4,"rateType":"SLIP_RATE","dip":90,"rake":180,"DEPRECATED":true,"DEPRECATED_WHY":"Coarser duplicate: 8.8 km/vertex where DGGS QFF \"Transition fault\" runs within 2.5 km at finer spacing; hidden on landslidescience.org since 2026-09-20.","DEPRECATED_BY":"DGGS QFF: Transition fault"},"geometry":{"type":"LineString","coordinates":[[-142.83302,59.20206],[-142.77533,59.17872],[-142.74689,59.16929]]}},{"type":"Feature","properties":{"name":"Transition","FaultID":4282,"state":"AK","rate":4,"rateType":"SLIP_RATE","dip":90,"rake":180},"geometry":{"type":"LineString","coordinates":[[-142.74334,59.16811],[-142.6687,59.14338],[-142.63908,59.13082]]}},{"type":"Feature","properties":{"name":"Transition","FaultID":4282,"state":"AK","rate":4,"rateType":"SLIP_RATE","dip":90,"rake":180,"DEPRECATED":true,"DEPRECATED_WHY":"Coarser duplicate: 8.8 km/vertex where DGGS QFF \"Transition fault\" runs within 2.5 km at finer spacing; hidden on landslidescience.org since 2026-09-20.","DEPRECATED_BY":"DGGS QFF: Transition fault"},"geometry":{"type":"LineString","coordinates":[[-142.63579,59.12942],[-142.56996,59.10151],[-142.49917,59.06925],[-142.37804,59.02808],[-142.22875,58.99572],[-142.10575,58.96128],[-142.09842,58.95924]]}},{"type":"Feature","properties":{"name":"Transition","FaultID":4282,"state":"AK","rate":4,"rateType":"SLIP_RATE","dip":90,"rake":180},"geometry":{"type":"LineString","coordinates":[[-142.09476,58.95822],[-141.99952,58.93176],[-141.91424,58.90797],[-141.82447,58.88283],[-141.75406,58.85594],[-141.67882,58.82711],[-141.59784,58.79597],[-141.47119,58.7591],[-141.35844,58.7261],[-141.26174,58.69766],[-141.13746,58.64893],[-141.04401,58.61788],[-140.94903,58.5862],[-140.85579,58.55416],[-140.76437,58.52315],[-140.68117,58.49483],[-140.60743,58.46964],[-140.51434,58.43773],[-140.41763,58.40444],[-140.33121,58.37457],[-140.23654,58.34173],[-140.12064,58.30134],[-139.98703,58.25453],[-139.84877,58.2058],[-139.75376,58.16059],[-139.60543,58.11805],[-139.47356,58.08633],[-139.32199,58.04846],[-139.17083,58.01043],[-139.01509,57.99881],[-138.9258,57.96258],[-138.80442,57.94041],[-138.63876,57.94384],[-138.52711,57.92799],[-138.41019,57.91128],[-138.30449,57.90623],[-138.05482,57.8477],[-137.77673,57.79063],[-137.36317,57.77159],[-137.19917,57.7754],[-136.65057,57.785]]}},{"type":"Feature","properties":{"name":"Foreland Thrust (Khitrov)","FaultID":4283,"state":"AK","rate":34,"rateType":"SLIP_RATE","dip":45,"rake":90},"geometry":{"type":"LineString","coordinates":[[-143.18218,59.32894],[-143.27417,59.32141],[-143.34644,59.32593],[-143.40713,59.32227],[-143.42914,59.31543],[-143.495,59.32222],[-143.54765,59.33509],[-143.58272,59.34079],[-143.66174,59.33273],[-143.70988,59.32362],[-143.74607,59.31642],[-143.77887,59.30176],[-143.83183,59.28581],[-143.8909,59.2775],[-143.93955,59.27554],[-143.98928,59.27938],[-144.0422,59.28202],[-144.09278,59.28302],[-144.14502,59.27838],[-144.21895,59.2768],[-144.28254,59.28158],[-144.33467,59.2869],[-144.3908,59.2882],[-144.46754,59.27664],[-144.50513,59.25357],[-144.54306,59.23913],[-144.56715,59.22367],[-144.61212,59.21403],[-144.65467,59.19273],[-144.69208,59.17965],[-144.76243,59.18648],[-144.84361,59.17253],[-144.90726,59.18418],[-144.99566,59.19107],[-145.06673,59.19886],[-145.1758,59.21206],[-145.25505,59.21026],[-145.35729,59.21542]]}},{"type":"Feature","properties":{"name":"Patton Bay","FaultID":4284,"state":"AK","rate":2,"rateType":"SLIP_RATE","dip":45,"rake":90,"DEPRECATED":true,"DEPRECATED_WHY":"Coarser duplicate: 3.8 km/vertex where DGGS QFF \"Patton Bay fault\" runs within 2.5 km at finer spacing; hidden on landslidescience.org since 2026-09-20.","DEPRECATED_BY":"DGGS QFF: Patton Bay fault"},"geometry":{"type":"LineString","coordinates":[[-147.27455,60.07351],[-147.3308,60.05027],[-147.37169,60.03776],[-147.4296,60.01875],[-147.45672,60.00401],[-147.47506,59.98825],[-147.4963,59.97101],[-147.53776,59.93828],[-147.5903,59.89203],[-147.63324,59.87021],[-147.68161,59.8484],[-147.72918,59.83132],[-147.74906,59.81459],[-147.76758,59.78756],[-147.78914,59.77262],[-147.84434,59.74482],[-147.91072,59.70053],[-147.95202,59.67936],[-148.01294,59.66793],[-148.07412,59.64558],[-148.11508,59.63965]]}},{"type":"Feature","properties":{"name":"Patton Bay","FaultID":4284,"state":"AK","rate":2,"rateType":"SLIP_RATE","dip":45,"rake":90},"geometry":{"type":"LineString","coordinates":[[-148.11963,59.639],[-148.15604,59.63372],[-148.22778,59.62428],[-148.31372,59.62239],[-148.3848,59.6127],[-148.5168,59.5866]]}},{"type":"Feature","properties":{"name":"Denali (Holitna)","FaultID":4000,"state":"AK","rate":0.20000000298023224,"rateType":"NOMINAL","dip":90,"rake":180,"DEPRECATED":true,"DEPRECATED_WHY":"Coarser duplicate: 6.6 km/vertex where USGS 2021 ArcticDEM traces \"Denali (Holitna)\" runs within 2.5 km at finer spacing; hidden on landslidescience.org since 2026-09-20.","DEPRECATED_BY":"USGS 2021 ArcticDEM traces: Denali (Holitna)"},"geometry":{"type":"LineString","coordinates":[[-158.85263,60.6701],[-158.76492,60.71371],[-158.67665,60.75071],[-158.59037,60.79276],[-158.53198,60.82487],[-158.4513,60.86055],[-158.38337,60.89759],[-158.31389,60.95025],[-158.22376,61.0066],[-158.14985,61.04985],[-158.08899,61.08535],[-158.01299,61.12953],[-157.93324,61.17571],[-157.87265,61.21956],[-157.80579,61.26778]]}},{"type":"Feature","properties":{"name":"Atsaksovluk","FaultID":4289,"state":"AK","rate":0.009999999776482582,"rateType":"NOMINAL","dip":90,"rake":180,"DEPRECATED":true,"DEPRECATED_WHY":"Coarser duplicate: 6.2 km/vertex where USGS 2021 ArcticDEM traces \"Atsaksovluk\" runs within 2.5 km at finer spacing; hidden on landslidescience.org since 2026-09-20.","DEPRECATED_BY":"USGS 2021 ArcticDEM traces: Atsaksovluk"},"geometry":{"type":"LineString","coordinates":[[-158.8119,60.92368],[-158.76943,60.95618],[-158.68589,61.00925],[-158.61296,61.06446],[-158.55019,61.10881],[-158.45274,61.15184],[-158.42019,61.17294]]}},{"type":"Feature","properties":{"name":"Middle Fork","FaultID":4290,"state":"AK","rate":1,"rateType":"SLIP_RATE","dip":45,"rake":90},"geometry":{"type":"LineString","coordinates":[[-155.13181,62.04788],[-155.09089,62.0669],[-155.06151,62.08001],[-155.01785,62.09631],[-154.97264,62.1133],[-154.94697,62.122],[-154.85151,62.17287],[-154.81645,62.20052],[-154.7729,62.23204],[-154.69462,62.26375],[-154.65266,62.28042],[-154.57087,62.31288],[-154.49211,62.34109],[-154.41008,62.36472],[-154.33767,62.38248],[-154.26913,62.39379]]}},{"type":"Feature","properties":{"name":"Denali (east, north)","FaultID":4006,"state":"YT","rate":5,"rateType":"SLIP_RATE","dip":90,"rake":180,"DEPRECATED":true,"DEPRECATED_WHY":"Coarser duplicate: 10.6 km/vertex where DGGS QFF \"Denali fault (West Muldrow-Alsek section)\" runs within 2.5 km at finer spacing; hidden on landslidescience.org since 2026-09-20.","DEPRECATED_BY":"DGGS QFF: Denali fault (West Muldrow-Alsek section)"},"geometry":{"type":"LineString","coordinates":[[-143.32286,62.828],[-143.16519,62.78059],[-142.99093,62.72783],[-142.84646,62.68379],[-142.67684,62.63173],[-142.50429,62.57839],[-142.32029,62.52108],[-142.14964,62.46753],[-142.01152,62.4239]]}},{"type":"Feature","properties":{"name":"Decoeli Mountain","FaultID":4291,"state":"YT","rate":0.5,"rateType":"SLIP_RATE","dip":45,"rake":90,"DEPRECATED":true,"DEPRECATED_WHY":"Coarser duplicate: 2.6 km/vertex where USGS 2021 ArcticDEM traces \"Decoeli Mountain\" runs within 2.5 km at finer spacing; hidden on landslidescience.org since 2026-09-20.","DEPRECATED_BY":"USGS 2021 ArcticDEM traces: Decoeli Mountain"},"geometry":{"type":"LineString","coordinates":[[-138.01786,60.8817],[-137.96983,60.87139],[-137.90892,60.85862],[-137.86649,60.84396],[-137.83545,60.83376],[-137.80228,60.81385],[-137.78285,60.801],[-137.77632,60.79004]]}},{"type":"Feature","properties":{"name":"Council","FaultID":4292,"state":"AK","rate":0.009999999776482582,"rateType":"NOMINAL","dip":60,"rake":-90,"DEPRECATED":true,"DEPRECATED_WHY":"Coarser duplicate: 1.7 km/vertex where USGS 2021 ArcticDEM traces \"Council\" runs within 2.5 km at finer spacing; hidden on landslidescience.org since 2026-09-20.","DEPRECATED_BY":"USGS 2021 ArcticDEM traces: Council"},"geometry":{"type":"LineString","coordinates":[[-163.82757,64.88806],[-163.80437,64.87174],[-163.77724,64.85687],[-163.74724,64.84224],[-163.7284,64.83122],[-163.70632,64.82017],[-163.68358,64.81423],[-163.6427,64.80767]]}},{"type":"Feature","properties":{"name":"Stevens (west)","FaultID":4293,"state":"AK","rate":0.009999999776482582,"rateType":"NOMINAL","dip":90,"rake":180,"DEPRECATED":true,"DEPRECATED_WHY":"Coarser duplicate: 18.2 km/vertex where USGS 2021 ArcticDEM traces \"Stevens\" runs within 2.5 km at finer spacing; hidden on landslidescience.org since 2026-09-20.","DEPRECATED_BY":"USGS 2021 ArcticDEM traces: Stevens"},"geometry":{"type":"LineString","coordinates":[[-149.639,66.133],[-149.30245,66.24911],[-148.96281,66.31496]]}},{"type":"Feature","properties":{"name":"Stevens (east)","FaultID":4294,"state":"AK","rate":0.009999999776482582,"rateType":"NOMINAL","dip":90,"rake":180,"DEPRECATED":true,"DEPRECATED_WHY":"Coarser duplicate: 13.4 km/vertex where USGS 2021 ArcticDEM traces \"Stevens\" runs within 2.5 km at finer spacing; hidden on landslidescience.org since 2026-09-20.","DEPRECATED_BY":"USGS 2021 ArcticDEM traces: Stevens"},"geometry":{"type":"LineString","coordinates":[[-148.90347,66.24846],[-148.70021,66.28806],[-148.37048,66.32933],[-148.03555,66.35775],[-147.74753,66.39244]]}},{"type":"Feature","properties":{"name":"Duke River","FaultID":4021,"state":"YT","rate":9.899999618530273,"rateType":"SLIP_RATE","dip":45,"rake":135},"geometry":{"type":"LineString","coordinates":[[-141.18452,61.4605],[-141.0021,61.45404],[-140.76948,61.42778],[-140.58221,61.40633]]}},{"type":"Feature","properties":{"name":"Natazhat","FaultID":4295,"state":"AK","rate":3,"rateType":"VERTICAL_SLIP_RATE","dip":45,"rake":135},"geometry":{"type":"LineString","coordinates":[[-141.73685,61.71752],[-141.68239,61.71662],[-141.64169,61.7052],[-141.5634,61.70334],[-141.49504,61.68399],[-141.4666,61.67242],[-141.3661,61.64784],[-141.29661,61.62165],[-141.22804,61.63055],[-141.16234,61.63721]]}},{"type":"Feature","properties":{"name":"Bagley (east)","FaultID":4277,"state":"AK","rate":4,"rateType":"SLIP_RATE","dip":45,"rake":90,"DEPRECATED":true,"DEPRECATED_WHY":"Coarser duplicate: 6.9 km/vertex where DGGS QFF \"Bagley fault (Chugach-St. Elias fold and thrust belt))\" runs within 2.5 km at finer spacing; hidden on landslidescience.org since 2026-09-20.","DEPRECATED_BY":"DGGS QFF: Bagley fault (Chugach-St. Elias fold and thrust belt))"},"geometry":{"type":"LineString","coordinates":[[-141.01801,60.37474],[-141.10626,60.38451],[-141.20659,60.39555],[-141.29552,60.40526],[-141.38486,60.41495],[-141.51777,60.43461],[-141.65093,60.45414],[-141.74919,60.46846],[-141.85343,60.48356],[-141.97045,60.49813],[-142.08443,60.51221],[-142.25063,60.52991],[-142.39807,60.54542],[-142.56513,60.56162]]}},{"type":"Feature","properties":{"name":"Bering Glacier","FaultID":4296,"state":"AK","rate":9,"rateType":"SLIP_RATE","dip":45,"rake":90},"geometry":{"type":"LineString","coordinates":[[-143.71209,60.12461],[-143.51992,60.21692],[-143.32913,60.30149],[-143.02967,60.38084],[-142.79122,60.42636],[-142.59564,60.49246],[-142.50284,60.53257]]}},{"type":"Feature","properties":{"name":"Paimute (west)","FaultID":4297,"state":"AK","rate":0.009999999776482582,"rateType":"NOMINAL","dip":90,"rake":180},"geometry":{"type":"LineString","coordinates":[[-163.64973,60.92525],[-163.44126,60.99851],[-163.18973,61.08451],[-162.89158,61.17326],[-162.6552,61.24679],[-162.46695,61.31541],[-162.23091,61.3984]]}},{"type":"Feature","properties":{"name":"Paimute (east)","FaultID":4298,"state":"AK","rate":0.009999999776482582,"rateType":"NOMINAL","dip":90,"rake":180},"geometry":{"type":"LineString","coordinates":[[-161.54953,61.45057],[-161.40261,61.50321],[-161.2568,61.55283],[-161.12166,61.60828]]}},{"type":"Feature","properties":{"name":"Goldstream (seismicity)","FaultID":4305,"state":"AK","rate":0.009999999776482582,"rateType":"NOMINAL","dip":90,"rake":180},"geometry":{"type":"LineString","coordinates":[[-149.0105,64.4793],[-148.8447,64.5822],[-148.7373,64.6616],[-148.5158,64.7368],[-148.3518,64.795],[-148.2413,64.8665],[-147.9736,65.0036]]}},{"type":"Feature","properties":{"name":"Salcha (seismicity)","FaultID":4306,"state":"AK","rate":0.009999999776482582,"rateType":"NOMINAL","dip":90,"rake":180},"geometry":{"type":"LineString","coordinates":[[-147.6682,64.2937],[-147.4027,64.4015],[-147.2003,64.491],[-147.0296,64.6082],[-146.8305,64.7042],[-146.7154,64.7961]]}},{"type":"Feature","properties":{"name":"Rampart (seismicity)","FaultID":4307,"state":"AK","rate":0.009999999776482582,"rateType":"NOMINAL","dip":90,"rake":180},"geometry":{"type":"LineString","coordinates":[[-149.9733,65.1882],[-149.9905,65.2939],[-149.9394,65.4141],[-149.8982,65.5451]]}},{"type":"Feature","properties":{"name":"Fairbanks (seismicity)","FaultID":4308,"state":"AK","rate":0.009999999776482582,"rateType":"NOMINAL","dip":90,"rake":180},"geometry":{"type":"LineString","coordinates":[[-148.5811,64.2397],[-148.3793,64.3183],[-148.0245,64.4616],[-147.8041,64.5658],[-147.5774,64.6865],[-147.3609,64.8009],[-147.2312,64.8705]]}},{"type":"Feature","properties":{"name":"Purkeypile","FaultID":4299,"state":"AK","rate":1,"rateType":"SLIP_RATE","dip":45,"rake":90},"geometry":{"type":"LineString","coordinates":[[-153.27355,62.63174],[-153.24193,62.65525],[-153.20073,62.67825],[-153.17046,62.69595],[-153.12976,62.71649],[-153.07598,62.74101],[-153.01537,62.75285],[-152.96787,62.76068],[-152.94249,62.76377],[-152.90283,62.77398],[-152.86077,62.78668],[-152.82028,62.79891],[-152.78936,62.80919],[-152.7635,62.82125]]}},{"type":"Feature","properties":{"name":"Ugak","FaultID":4309,"state":"AK","rate":1.2999999523162842,"rateType":"VERTICAL_SLIP_RATE","dip":45,"rake":90},"geometry":{"type":"LineString","coordinates":[[-151.6014,57.73129],[-151.95491,57.51359],[-152.4048,57.25707],[-152.74877,57.03702],[-153.13412,56.81629],[-153.36477,56.6612],[-153.69025,56.51305],[-154.07091,56.32483],[-154.44158,56.16032],[-154.73213,55.97377],[-154.95075,55.81198]]}},{"type":"Feature","properties":{"name":"Kanuti","FaultID":4310,"state":"AK","rate":0.10000000149011612,"rateType":"NOMINAL","dip":60,"rake":-90},"geometry":{"type":"LineString","coordinates":[[-151.69898,66.01448],[-151.68718,66.02173],[-151.67082,66.03054],[-151.65405,66.03848],[-151.64035,66.04599],[-151.63298,66.05027],[-151.61895,66.05863],[-151.60698,66.06483],[-151.5951,66.07512],[-151.58255,66.08493],[-151.57194,66.09391],[-151.56315,66.10073],[-151.55738,66.10512],[-151.54537,66.11379],[-151.5281,66.11867],[-151.51628,66.12258],[-151.48475,66.12991],[-151.46207,66.13406]]}},{"type":"Feature","properties":{"name":"Chirikof","FaultID":4311,"state":"AK","rate":0.5,"rateType":"SLIP_RATE","dip":60,"rake":-90},"geometry":{"type":"LineString","coordinates":[[-155.57975,55.83562],[-155.59822,55.82259],[-155.6221,55.81099],[-155.63734,55.80273],[-155.67967,55.77641]]}},{"type":"Feature","properties":{"name":"Fairweather (north)","FaultID":4039,"state":"AK","rate":36,"rateType":"SLIP_RATE","dip":88,"rake":172,"DEPRECATED":true,"DEPRECATED_WHY":"Coarser duplicate: 7.9 km/vertex where DGGS QFF \"Fairweather fault\" runs within 2.5 km at finer spacing; hidden on landslidescience.org since 2026-09-20.","DEPRECATED_BY":"DGGS QFF: Fairweather fault"},"geometry":{"type":"LineString","coordinates":[[-139.50735,60.05083],[-139.42156,60.02142],[-139.29582,59.98543],[-139.21413,59.94999],[-139.11918,59.89827],[-139.06664,59.85682],[-139.00342,59.83533],[-138.95595,59.78184],[-138.7908,59.67935],[-138.70898,59.63379],[-138.54324,59.52961],[-138.54088,59.52812]]}},{"type":"Feature","properties":{"name":"Tintina (Medicine Lake - Preacher)","FaultID":4220,"state":"AK","rate":0.5,"rateType":"SLIP_RATE","dip":90,"rake":90,"DEPRECATED":true,"DEPRECATED_WHY":"Coarser duplicate: 4.0 km/vertex where DGGS QFF \"Preacher fault (Tintina fault zone)\" runs within 2.5 km at finer spacing; hidden on landslidescience.org since 2026-09-20.","DEPRECATED_BY":"DGGS QFF: Preacher fault (Tintina fault zone)"},"geometry":{"type":"LineString","coordinates":[[-144.3195,65.48567],[-144.36903,65.51031],[-144.41204,65.52113],[-144.46615,65.53303],[-144.5085,65.54595],[-144.57301,65.56706],[-144.6409,65.58158],[-144.70644,65.59758],[-144.78227,65.61776],[-144.87267,65.63831],[-144.9658,65.65801],[-145.07291,65.67075],[-145.14047,65.6841],[-145.24109,65.70307],[-145.3469,65.72801],[-145.42357,65.74268],[-145.51323,65.75321],[-145.57263,65.76401]]}}]}